{"version": 0.6, "generator": "Overpass API 0.7.62.5 1bd436f1", "osm3s": {"timestamp_osm_base": "2025-05-07T18:10:00Z", "copyright": "The data included in this document is from www.openstreetmap.org. The data is made available under ODbL."}, "elements": [{"type": "node", "id": 286081302, "lat": 37.8647961, "lon": -122.2671401, "tags": {"addr:city": "Berkeley", "addr:housenumber": "2451", "addr:postcode": "94704", "addr:state": "CA", "addr:street": "Shattuck Avenue", "amenity": "restaurant", "cuisine": "japanese", "indoor_seating": "yes", "name": "Fish & Bird Sousaku Izakaya", "opening_hours": "Mo 16:30-21:00; We,Th 17:00-21:00; Fr,Sa 16:30-21:30; Su 16:30-21:00", "outdoor_seating": "no", "phone": "+1-510-705-1539", "smoking": "no", "website": "https://fishbirdizakaya.com/", "wheelchair": "yes"}}, {"type": "node", "id": 308447576, "lat": 37.8622626, "lon": -122.281359, "tags": {"addr:city": "Berkeley", "addr:housenumber": "2454", "addr:street": "Sacramento Street", "amenity": "restaurant", "amenity_1": "cafe", "cuisine": "brunch;coffee_shop", "diet:vegan": "no", "diet:vegetarian": "yes", "name": "Homemade Cafe", "opening_hours": "Mo-Fr 07:00-14:00; Sa, Su 08:00-15:00", "phone": "+15108451940", "website": "https://www.homemade-cafe.com/", "wheelchair": "yes"}}, {"type": "node", "id": 312032407, "lat": 37.866069, "lon": -122.3057564}, {"type": "node", "id": 312032408, "lat": 37.8660017, "lon": -122.305612}, {"type": "node", "id": 312032409, "lat": 37.8658541, "lon": -122.3057224}, {"type": "node", "id": 312032410, "lat": 37.8659096, "lon": -122.3058414}, {"type": "node", "id": 312032411, "lat": 37.865929, "lon": -122.3058269}, {"type": "node", "id": 312032412, "lat": 37.8659533, "lon": -122.3058761}, {"type": "node", "id": 312032413, "lat": 37.8660065, "lon": -122.3058364}, {"type": "node", "id": 312032416, "lat": 37.865995, "lon": -122.3058118}, {"type": "node", "id": 314115388, "lat": 37.8817265, "lon": -122.26981, "tags": {"addr:city": "Berkeley", "addr:country": "US", "addr:housenumber": "1400", "addr:postcode": "94709", "addr:state": "CA", "addr:street": "Shattuck Avenue", "amenity": "restaurant", "cuisine": "italian;pizza", "name": "Lo Coco's", "phone": "+1-510-843-3745", "website": "https://www.lococosberkeley.com/"}}, {"type": "node", "id": 314115398, "lat": 37.8806944, "lon": -122.269035, "tags": {"addr:city": "Berkeley", "addr:country": "US", "addr:housenumber": "1475", "addr:state": "CA", "addr:street": "Shattuck Avenue", "amenity": "restaurant", "cuisine": "jewish", "drive_in": "no", "microbrewery": "no", "name": "Saul's Deli", "opening_hours": "Mo-Su 08:00-21:00", "outdoor_seating": "parklet", "smoking": "no", "takeaway": "yes", "website": "http://www.saulsdeli.com/", "wheelchair": "yes"}}, {"type": "node", "id": 314115403, "lat": 37.8809246, "lon": -122.2690658, "tags": {"addr:city": "Berkeley", "addr:country": "US", "addr:housenumber": "1463", "addr:postcode": "94709", "addr:state": "CA", "addr:street": "Shattuck Avenue", "amenity": "restaurant", "cuisine": "japanese", "name": "Ijo Izakaya", "opening_hours": "Mo, We-Fr 11:30-14:30, 17:00-21:30; Sa-Su 12:00-15:00, 17:00-22:00", "outdoor_seating": "no", "phone": "+1-510-6795200", "website": "https://www.ijoizakaya.com/"}}, {"type": "node", "id": 314115409, "lat": 37.8798086, "lon": -122.269013, "tags": {"amenity": "restaurant", "cuisine": "japanese", "name": "Kirala 2", "opening_hours": "Mo-Su 11:00-19:00"}}, {"type": "node", "id": 314115419, "lat": 37.8798563, "lon": -122.269013, "tags": {"addr:city": "Berkeley", "addr:country": "US", "addr:housenumber": "1511", "addr:postcode": "94704", "addr:state": "CA", "addr:street": "Shattuck Avenue", "amenity": "restaurant", "cuisine": "italian", "name": "Flavia", "phone": "510-6292030", "website": "https://www.flaviaosteria.com/"}}, {"type": "node", "id": 314115422, "lat": 37.8797331, "lon": -122.269, "tags": {"addr:city": "Berkeley", "addr:country": "US", "addr:housenumber": "1513", "addr:postcode": "94709", "addr:state": "CA", "addr:street": "Shattuck Avenue", "amenity": "restaurant", "cuisine": "american;indian", "diet:vegetarian": "yes", "name": "Tigerlily Berkeley", "opening_hours": "Sa,Su 11:00-14:00, Mo-Su 17:00-18:30", "phone": "+1 510-540-7900", "website": "https://www.tigerlily-berkeley.com/"}}, {"type": "node", "id": 314115443, "lat": 37.8795958, "lon": -122.26897, "tags": {"addr:city": "Berkeley", "addr:country": "US", "addr:housenumber": "1517", "addr:postcode": "94709", "addr:state": "CA", "addr:street": "Shattuck Avenue", "amenity": "restaurant", "cuisine": "californian", "drive_in": "no", "microbrewery": "no", "name": "Chez Panisse", "opening_hours": "Mo-Tu 11:30-22:30; Fr-Sa 11:30-23:30", "phone": "+15105485049", "smoking": "no", "website": "https://www.chezpanisse.com/", "wikidata": "Q1105811", "wikipedia": "en:Chez Panisse"}}, {"type": "node", "id": 314115473, "lat": 37.87986, "lon": -122.269469, "tags": {"addr:city": "Berkeley", "addr:country": "US", "addr:housenumber": "1512", "addr:state": "CA", "addr:street": "Shattuck Avenue", "amenity": "restaurant", "check_date": "2023-05-27", "contact:facebook": "cheeseboard", "contact:instagram": "cheeseboardcoll", "contact:twitter": "CheeseBoardColl", "cooperative": "yes", "cuisine": "pizza", "delivery": "no", "description:diet": "To order vegan and gluten-free pizzas, ask a worker before getting in line", "diet:vegan": "yes", "diet:vegetarian": "only", "drink:beer": "yes", "drink:wine": "yes", "drive_in": "no", "email": "cheeseboard@mac.com", "indoor_seating": "yes", "microbrewery": "no", "name": "Cheeseboard Pizza", "opening_hours": "Mo-Tu,Su off; We-Fr 17:00-20:00; Sa 11:30-14:30,17:00-20:00", "opening_hours:url": "https://cheeseboardcollective.coop/pizza/", "outdoor_seating": "yes", "phone": "+1 510 5493183", "smoking": "no", "takeaway": "yes", "website": "https://cheeseboardcollective.coop/", "wheelchair": "yes"}}, {"type": "node", "id": 314115506, "lat": 37.878223, "lon": -122.269441, "tags": {"addr:city": "Berkeley", "addr:country": "US", "addr:housenumber": "1600", "addr:state": "CA", "addr:street": "Shattuck Avenue", "addr:unit": "112", "amenity": "restaurant", "check_date": "2023-05-20", "cuisine": "burger", "drive_in": "no", "level": "0", "microbrewery": "no", "name": "Barney's Gourmet Hamburgers", "note": "Suite 112", "opening_hours": "Mo-Th,Su 11:00-20:30; Fr-Sa 11:00-21:00", "outdoor_seating": "yes", "smoking": "no", "website": "https://www.barneyshamburgers.com/"}}, {"type": "node", "id": 314115556, "lat": 37.8770733, "lon": -122.269164, "tags": {"addr:country": "US", "addr:housenumber": "1674", "addr:state": "CA", "addr:street": "Shattuck Avenue", "amenity": "restaurant", "check_date": "2023-03-18", "contact:facebook": "https://www.facebook.com/dalianrestaurant/", "cuisine": "chinese", "diet:vegetarian": "yes", "name": "Da Lian", "opening_hours": "Mo off; Tu-Fr,Su 11:30-14:30,16:30-21:00; Sa 16:30-21:00", "phone": "+1 510-883-1883", "website": "https://www.dalianrestaurant.com/"}}, {"type": "node", "id": 314115558, "lat": 37.8768171, "lon": -122.269123, "tags": {"addr:city": "Berkeley", "addr:country": "US", "addr:housenumber": "1686", "addr:state": "CA", "addr:street": "Shattuck Avenue", "amenity": "restaurant", "cuisine": "japanese", "diet:vegan": "only", "diet:vegetarian": "yes", "drive_in": "no", "microbrewery": "no", "name": "Cha Ya", "opening_hours": "We-Mo 12:00-20:00", "outdoor_seating": "no", "smoking": "no", "takeaway": "yes", "website": "https://www.chaya-berkeley.com/", "wheelchair": "yes"}}, {"type": "node", "id": 314115577, "lat": 37.876464, "lon": -122.269079, "tags": {"addr:country": "US", "addr:housenumber": "1700", "addr:state": "CA", "addr:street": "Shattuck Avenue", "amenity": "restaurant", "cuisine": "indian", "diet:vegetarian": "yes", "drive_in": "no", "microbrewery": "no", "name": "Taste of the Himalayas", "opening_hours": "We-Su 16:30-20:30", "phone": "+1 510-849-4983", "website": "https://www.tasteofthehimalayas.com/"}}, {"type": "node", "id": 314115581, "lat": 37.8763927, "lon": -122.269062, "tags": {"addr:city": "Berkeley", "addr:housenumber": "1700", "addr:postcode": "94709", "addr:state": "CA", "addr:street": "Shattuck Avenue", "amenity": "restaurant", "cuisine": "thai", "diet:vegetarian": "yes", "drive_in": "no", "microbrewery": "no", "name": "Thai Delight", "opening_hours": "Th-Tu 10:00-15:00,16:30-20:30", "phone": "+1-510-549-0611", "website": "https://www.onlinethaidelightberkeley.com"}}, {"type": "node", "id": 314115583, "lat": 37.8760111, "lon": -122.2690487, "tags": {"addr:city": "Berkeley", "addr:country": "US", "addr:housenumber": "1730", "addr:postcode": "94709", "addr:state": "CA", "addr:street": "Shattuck Avenue", "amenity": "restaurant", "cuisine": "italian", "diet:vegetarian": "yes", "name": "Agrodolce", "opening_hours": "Tu-Su 17:00-21:00", "outdoor_seating": "yes", "phone": "+1 510-848-8748", "website": "https://www.agrodolceberkeley.com/"}}, {"type": "node", "id": 314115617, "lat": 37.8752578, "lon": -122.2689411, "tags": {"addr:country": "US", "addr:housenumber": "1776", "addr:state": "CA", "addr:street": "Shattuck Avenue", "amenity": "restaurant", "cuisine": "sushi", "name": "Party Sushi", "phone": "(510) 841-1776", "website": "https://partysushisf.com/"}}, {"type": "node", "id": 314115623, "lat": 37.8750513, "lon": -122.2689164, "tags": {"addr:country": "US", "addr:housenumber": "1788", "addr:state": "CA", "addr:street": "Shattuck Avenue", "amenity": "restaurant", "cuisine": "italian", "name": "Via del Corso", "old_name": "Corso", "outdoor_seating": "parklet", "website": "https://www.viadelcorso.net/"}}, {"type": "node", "id": 314115684, "lat": 37.873196, "lon": -122.268714, "tags": {"addr:city": "Berkeley", "addr:country": "US", "addr:housenumber": "1936", "addr:state": "CA", "addr:street": "Shattuck Avenue", "amenity": "restaurant", "contact:instagram": "thenoodlebay", "cuisine": "thai", "diet:vegetarian": "yes", "level": "0", "name": "The Noodle", "opening_hours": "Mo off; Tu-Su 12:00-15:00, 17:00-20:00", "website": "https://thenoodlebay.com/"}}, {"type": "node", "id": 314115688, "lat": 37.872546, "lon": -122.2686471, "tags": {"addr:city": "Berkeley", "addr:country": "US", "addr:housenumber": "1986", "addr:postcode": "94704", "addr:state": "CA", "addr:street": "Shattuck Avenue", "amenity": "restaurant", "check_date": "2025-03-19", "cuisine": "vietnamese", "drive_in": "no", "level": "0", "name": "Vietnam House", "old_name": "Turkish Kitchen", "outdoor_seating": "no", "smoking": "no"}}, {"type": "node", "id": 314117745, "lat": 37.8785742, "lon": -122.268587, "tags": {"addr:city": "Berkeley", "addr:country": "US", "addr:housenumber": "2109", "addr:state": "CA", "addr:street": "Cedar Street", "amenity": "restaurant", "contact:instagram": "gregoirerestaurant", "cuisine": "french", "drive_in": "no", "microbrewery": "no", "name": "Gr\u00e9goire", "opening_hours": "07:00-21:00", "phone": "+1 510 8831893", "smoking": "no", "website": "https://www.gregoirerestaurant.com/"}}, {"type": "node", "id": 314117759, "lat": 37.8786643, "lon": -122.268927, "tags": {"addr:city": "Berkeley", "addr:country": "US", "addr:housenumber": "1543", "addr:postcode": "94709", "addr:state": "CA", "addr:street": "Shattuck Avenue", "alt_name": "JotMahal Palace of Indian Cuisine", "amenity": "restaurant", "check_date": "2023-03-18", "cuisine": "indian", "name": "JotMahal", "opening_hours": "Mo-Su 11:00-15:00,17:00-21:00", "phone": "+15108489664", "takeaway": "yes", "website": "https://www.jotmahalberkeley.com/"}}, {"type": "node", "id": 318886206, "lat": 37.8755667, "lon": -122.2606291, "tags": {"addr:city": "Berkeley", "addr:housenumber": "1832", "addr:postcode": "94709", "addr:state": "CA", "addr:street": "Euclid Avenue", "amenity": "restaurant", "check_date": "2025-03-13", "cuisine": "mexican", "name": "La Burrita", "wheelchair": "yes"}}, {"type": "node", "id": 318886209, "lat": 37.8753367, "lon": -122.2597989, "tags": {"amenity": "restaurant", "cuisine": "indian", "name": "Momo Masala", "takeaway": "yes"}}, {"type": "node", "id": 318886212, "lat": 37.8754617, "lon": -122.2597197, "tags": {"amenity": "restaurant", "cuisine": "vietnamese", "name": "Camille"}}, {"type": "node", "id": 318886213, "lat": 37.8755121, "lon": -122.2598263, "tags": {"amenity": "restaurant", "cuisine": "korean", "name": "Seoul hotdog", "opening_hours": "Mo-Sa 11:00-18:00", "takeaway": "yes"}}, {"type": "node", "id": 318886214, "lat": 37.8754473, "lon": -122.2598384, "tags": {"amenity": "restaurant", "cuisine": "japanese", "name": "Aki's", "takeaway": "yes"}}, {"type": "node", "id": 318886222, "lat": 37.8756116, "lon": -122.2601289, "tags": {"addr:city": "Berkeley", "addr:housenumber": "1839", "addr:street": "Euclid Avenue", "amenity": "restaurant", "cuisine": "american;mediterranean", "name": "Bongo Burger"}}, {"type": "node", "id": 318886225, "lat": 37.87569, "lon": -122.260144, "tags": {"addr:city": "Berkeley", "addr:housenumber": "1829", "addr:postcode": "94709", "addr:state": "CA", "addr:street": "Euclid Avenue", "amenity": "restaurant", "name": "Mt. Agni", "old_name": "Stuffed Inn"}}, {"type": "node", "id": 343610918, "lat": 37.8916276, "lon": -122.2773197, "tags": {"addr:city": "Berkeley", "addr:country": "US", "addr:housenumber": "1897", "addr:state": "CA", "addr:street": "Solano Avenue", "amenity": "restaurant", "cuisine": "mediterranean", "name": "Jerusalem Organic Kitchen", "phone": "510-525-7888", "website": "http://places.singleplatform.com/jerusalem-organic-kitchen/menu?ref=openstreetmap"}}, {"type": "node", "id": 343610919, "lat": 37.8913259, "lon": -122.277442, "tags": {"addr:city": "Berkeley", "addr:country": "US", "addr:housenumber": "1892", "addr:state": "CA", "addr:street": "Solano Avenue", "amenity": "restaurant", "cuisine": "thai", "diet:vegetarian": "yes", "name": "Tha Siam Thai Bistro", "old_name": "Bangkok Jam", "opening_hours": "Tu-Su 11:30-14:30, 16:30-21:00", "phone": "+1 5105253625", "website": "https://thasiam.net"}}, {"type": "node", "id": 343610920, "lat": 37.8913208, "lon": -122.277534, "tags": {"addr:city": "Berkeley", "addr:country": "US", "addr:housenumber": "1888", "addr:postcode": "94707", "addr:state": "CA", "addr:street": "Solano Avenue", "amenity": "restaurant", "cuisine": "indian", "diet:vegetarian": "yes", "name": "Ajanta", "opening_hours": "Tu-Su 12:00-14:30, 17:00-21:00", "phone": "+1 510 526-4373", "website": "https://www.ajantarestaurant.com"}}, {"type": "node", "id": 343610922, "lat": 37.8916139, "lon": -122.2775645, "tags": {"addr:city": "Berkeley", "addr:country": "US", "addr:housenumber": "1889", "addr:state": "CA", "addr:street": "Solano Avenue", "amenity": "restaurant", "cuisine": "indian", "name": "Khana Peena", "opening_hours": "Mo, Tu, Th-Su 11:30-14:30, 17:00-20:30", "website": "https://www.khanapeenasolano.com/"}}, {"type": "node", "id": 343610924, "lat": 37.8915993, "lon": -122.2778253, "tags": {"addr:city": "Berkeley", "addr:country": "US", "addr:housenumber": "1881", "addr:state": "CA", "addr:street": "Solano Avenue", "amenity": "restaurant", "cuisine": "mexican", "diet:vegetarian": "yes", "indoor_seating": "yes", "name": "Cactus Taqueria", "opening_hours": "Mo-Su 11:00-20:00", "outdoor_seating": "no", "phone": "+1 510 528 1881", "website": "https://www.cactustaqueria.com", "wheelchair": "yes"}}, {"type": "node", "id": 343610928, "lat": 37.8915568, "lon": -122.2785848, "tags": {"addr:city": "Berkeley", "addr:country": "US", "addr:housenumber": "1853", "addr:postcode": "94707", "addr:state": "CA", "addr:street": "Solano Avenue", "alt_name": "Zachary's North Berkeley", "amenity": "restaurant", "branch": "North Berkeley", "check_date:opening_hours": "2024-10-29", "cocktails": "no", "contact:doordash": "https://doordash.com/store/zachary's-chicago-pizza-berkeley-9094", "contact:facebook": "PizzaZacharys", "contact:instagram": "zacharyspizza", "contact:rss": "https://zacharys.com/feed", "contact:twitter": "ZacharysPizza", "contact:ubereats": "https://ubereats.com/store/zacharys-chicago-pizza-berkeley/X04dr6KvRkKuiY6cyAsMuQ?diningMode=DELIVERY", "contact:website": "https://zacharys.com/locations/north-berkeley", "contact:yelp": "https://yelp.com/biz/zacharys-chicago-pizza-berkeley", "cuisine": "pizza", "delivery": "third_party", "diet:gluten_free": "yes", "diet:vegan": "yes", "diet:vegetarian": "yes", "drink:beer": "yes", "drink:coffee": "yes", "drink:tea": "yes", "drink:wine": "yes", "drive_in": "no", "indoor_seating": "yes", "microbrewery": "no", "name": "Zachary's Chicago Pizza", "opening_hours": "Fr-Sa 11:00-21:00; Su-Th 11:00-20:30", "opening_hours:url": "https://zacharys.com/locations/berkeley", "outdoor_seating": "parklet", "phone": "+1-510-525-5950", "pizza:style": "chicago;pan", "reservation": "no", "short_name": "Zachary's", "smoking": "no", "takeaway": "yes", "website": "https://zacharys.com/locations/berkeley", "wheelchair": "yes"}}, {"type": "node", "id": 343610935, "lat": 37.8914344, "lon": -122.2807749, "tags": {"amenity": "restaurant", "cuisine": "chinese", "indoor_seating": "yes", "menu:url": "http://places.singleplatform.com/kirin-28/menu", "name": "Kirin", "outdoor_seating": "no", "phone": "510-524-1677", "website": "https://www.thekirin.com/"}}, {"type": "node", "id": 343610936, "lat": 37.8913544, "lon": -122.2822119, "tags": {"amenity": "restaurant", "cuisine": "vietnamese", "diet:vegan": "no", "diet:vegetarian": "yes", "indoor_seating": "yes", "name": "Vanessa's Bistro", "opening_hours": "Tu-Th, Su 16:00-20:00; Fr, Sa 15:00-21:00", "outdoor_seating": "yes", "website": "http://www.vanessasbistro.com/", "wheelchair": "limited"}}, {"type": "node", "id": 343610939, "lat": 37.8913348, "lon": -122.2825604, "tags": {"addr:city": "Berkeley", "addr:country": "US", "addr:housenumber": "1699", "addr:state": "CA", "addr:street": "Solano Avenue", "amenity": "restaurant", "cuisine": "chinese", "indoor_seating": "yes", "name": "Sichuan Style Restaurant", "old_name": "King Tsin", "opening_hours": "Mo-Su 11:30-21:30", "outdoor_seating": "no", "phone": "+15105259890", "website": "https://www.sichuanstylerestaurant.com/"}}, {"type": "node", "id": 343610940, "lat": 37.8913239, "lon": -122.2827535, "tags": {"addr:country": "US", "addr:housenumber": "1695", "addr:postcode": "94707", "addr:state": "CA", "addr:street": "Solano Avenue", "amenity": "restaurant", "contact:instagram": "https://www.instagram.com/akemiberkeley/", "cuisine": "japanese", "email": "picocho@yahoo.com", "indoor_seating": "yes", "internet_access": "wlan", "name": "AKEMI", "opening_hours": "Mo-Fr 11:30-16:00, 17:00-21:30; Sa-Su 09:00-18:00", "operator": "Akemi", "outdoor_seating": "yes", "phone": "+15105241286", "website": "http://www.akemiberkeley.com", "wheelchair": "yes"}}, {"type": "node", "id": 343610942, "lat": 37.8912839, "lon": -122.2834654, "tags": {"addr:street": "Solano Avenue", "amenity": "restaurant", "cuisine": "himalayan;indian", "indoor_seating": "yes", "name": "Himalayan Tandoori and Curry House", "opening_hours": "Mo-Su 11:00-15:00, 17:00-21:30", "outdoor_seating": "no", "phone": "5105264915", "website": "https://www.berkeleyhimalayan.com/", "wheelchair": "yes"}}, {"type": "node", "id": 343610943, "lat": 37.8912462, "lon": -122.2840802, "tags": {"addr:city": "Berkeley", "addr:country": "US", "addr:housenumber": "1615", "addr:postcode": "94707", "addr:state": "CA", "addr:street": "Solano Avenue", "amenity": "restaurant", "cuisine": "salad;sandwich;breakfast", "indoor_seating": "yes", "name": "Organic Greens", "opening_hours": "Mo-Su 10:00-17:30", "outdoor_seating": "yes", "phone": "5106478390", "website": "http://www.organicgreensalad.com/", "wheelchair": "yes"}}, {"type": "node", "id": 343610946, "lat": 37.8912226, "lon": -122.2845597, "tags": {"addr:city": "Berkeley", "addr:country": "US", "addr:housenumber": "1599", "addr:state": "CA", "addr:street": "Solano Avenue", "amenity": "restaurant", "cuisine": "sushi", "name": "Kyoto", "opening_hours": "Mo-Fr 11:00-19:30; Sa 11:00-18:30; Su 11:00-16:00", "phone": "(510) 527 3288", "takeaway": "only", "website": "http://www.kyotosushiberkeley.com/", "wheelchair": "yes"}}, {"type": "node", "id": 343610947, "lat": 37.8912136, "lon": -122.284737, "tags": {"addr:city": "Berkeley", "addr:country": "US", "addr:housenumber": "1593", "addr:state": "CA", "addr:street": "Solano Avenue", "amenity": "restaurant", "diet:vegan": "only", "indoor_seating": "yes", "name": "Peace Natural Vegan Food", "old_name": "Nomad", "outdoor_seating": "no"}}, {"type": "node", "id": 343610948, "lat": 37.8912088, "lon": -122.284812, "tags": {"addr:city": "Berkeley", "addr:country": "US", "addr:housenumber": "1591", "addr:postcode": "94707", "addr:state": "CA", "addr:street": "Solano Avenue", "amenity": "restaurant", "cuisine": "burger", "indoor_seating": "yes", "name": "Barney's", "opening_hours": "Mo-Su 11:00-21:00", "outdoor_seating": "parklet", "phone": "(510) 526-8185", "website": "https://www.barneyshamburgers.com/barneys-berkeley-solano", "wheelchair": "yes"}}, {"type": "node", "id": 343610951, "lat": 37.8911811, "lon": -122.285408, "tags": {"addr:street": "Solano Avenue", "alt_name": "Taqueria Talavera", "amenity": "restaurant", "cuisine": "mexican", "indoor_seating": "yes", "name": "Talavera Mexican Grill", "outdoor_seating": "sidewalk", "phone": "+15105588565", "takeaway": "yes", "website": "https://www.doordash.com/store/taqueria-talavera-berkeley-37527"}}, {"type": "node", "id": 343610964, "lat": 37.8911257, "lon": -122.286315, "tags": {"addr:city": "Berkeley", "addr:housenumber": "1539", "addr:state": "CA", "addr:street": "Solano Avenue", "amenity": "restaurant", "cuisine": "korean", "description": "Restaurant and Korean convenience store. The kitchen closes at 8pm.", "indoor_seating": "yes", "name": "Korean Superette", "opening_hours": "Su-Th 11:00-21:00; Fr, Sa 11:00-22:00", "outdoor_seating": "yes", "phone": "+15105294009", "shop": "deli", "website": "https://korean-superette.com", "wheelchair": "yes"}}, {"type": "node", "id": 343611045, "lat": 37.8911252, "lon": -122.281599, "tags": {"addr:city": "Berkeley", "addr:country": "US", "addr:housenumber": "1736", "addr:postcode": "94707", "addr:state": "CA", "addr:street": "Solano Avenue", "amenity": "restaurant", "cuisine": "thai", "level": "1", "name": "Sweet Basil", "opening_hours": "Mo-Sa 11:30-21:00", "outdoor_seating": "yes", "terrace": "yes", "website": "https://sweetbasilberkeley.com/"}}, {"type": "node", "id": 354645983, "lat": 37.868315, "lon": -122.2867924, "tags": {"addr:city": "Berkeley", "addr:country": "US", "addr:housenumber": "1250", "addr:postcode": "94702", "addr:state": "CA", "addr:street": "Addison Street", "amenity": "restaurant", "cuisine": "coffee_shop;tea", "diet:vegetarian": "yes", "internet_access": "wlan", "name": "The Hidden Caf\u00e9", "opening_hours": "Tu-Su 08:30-18:00; Mo 08:30-15:00", "phone": "+1 510-543-2233", "website": "https://www.thehiddencafe.life/"}}, {"type": "node", "id": 354702449, "lat": 37.8702677, "lon": -122.2673443, "tags": {"addr:city": "Berkeley", "addr:housenumber": "2114", "addr:street": "Center Street", "amenity": "restaurant", "check_date": "2023-11-11", "cuisine": "kebab", "drive_in": "no", "microbrewery": "no", "name": "Oasis Grill", "opening_hours": "Mo-Su 10:00-21:00", "outdoor_seating": "yes", "phone": "+15106668951", "smoking": "no", "takeaway": "yes", "website": "https://oasisgrill.com", "wheelchair": "yes"}}, {"type": "node", "id": 361220488, "lat": 37.86365, "lon": -122.317987, "tags": {"addr:city": "Berkeley", "addr:country": "US", "addr:housenumber": "100", "addr:postcode": "94710", "addr:state": "CA", "addr:street": "Seawall Drive", "amenity": "restaurant", "contact:instagram": "skatesonthebaysf", "cuisine": "seafood", "drive_in": "no", "name": "Skates on the Bay", "opening_hours": "Mo-Su 11:00-22:00", "phone": "+1 510 5491900", "smoking": "no", "website": "https://skatesonthebay.com"}}, {"type": "node", "id": 366088657, "lat": 37.8663643, "lon": -122.2588339, "tags": {"addr:housenumber": "2428", "addr:street": "Telegraph Avenue", "amenity": "restaurant", "check_date": "2023-06-11", "name": "Muracci's", "website": "http://www.muraccis.com/berkeley/"}}, {"type": "node", "id": 366352407, "lat": 37.8670418, "lon": -122.2563567, "tags": {"amenity": "restaurant", "check_date": "2024-07-31", "name": "Crossroads"}}, {"type": "node", "id": 368199832, "lat": 37.8593252, "lon": -122.2668457, "tags": {"addr:city": "Berkeley", "addr:housenumber": "2100", "addr:postcode": "94705", "addr:street": "Ward Street", "amenity": "restaurant", "cuisine": "japanese", "delivery": "no", "name": "Kirala", "opening_hours": "Mo-Fr 17:30-21:30; Sa 11:30-15:00, 17:30-21:30; Su 11:30-15:00, 17:00-21:00", "outdoor_seating": "no", "smoking": "no", "website": "https://www.kiralaberkeley.com/"}}, {"type": "node", "id": 402240443, "lat": 37.8698811, "lon": -122.2689319}, {"type": "node", "id": 420034459, "lat": 37.8782219, "lon": -122.269273, "tags": {"addr:city": "Berkeley", "addr:country": "US", "addr:housenumber": "1600", "addr:postcode": "94709", "addr:state": "CA", "addr:street": "Shattuck Avenue", "addr:unit": "102", "amenity": "restaurant", "check_date": "2023-05-20", "cuisine": "crepe", "drive_in": "no", "level": "0", "microbrewery": "no", "name": "Crepevine", "opening_hours:signed": "no", "outdoor_seating": "yes", "phone": "+1 510 7051836", "smoking": "no", "takeaway": "yes", "website": "https://crepevine.com/", "wheelchair": "yes"}}, {"type": "node", "id": 431015326, "lat": 37.8697594, "lon": -122.2660271, "tags": {"addr:city": "Berkeley", "addr:housenumber": "2175", "addr:postcode": "94704", "addr:street": "Allston Way", "amenity": "restaurant", "cuisine": "persian", "name": "Alborz", "old_name": "Saturn Cafe", "phone": "+1 510 9840985", "website": "https://alborzrestaurants.com/berkeley-restaurant/", "wheelchair": "yes"}}, {"type": "node", "id": 435049641, "lat": 37.8749191, "lon": -122.2942927, "tags": {"addr:city": "Berkeley", "addr:country": "US", "addr:housenumber": "1610", "addr:postcode": "94702", "addr:state": "CA", "addr:street": "San Pablo Avenue", "alt_name": "Mountain Mike's Pizza", "amenity": "restaurant", "brand": "Mountain Mike's", "brand:wikidata": "Q6925120", "cuisine": "pizza", "delivery": "yes", "name": "Mountain Mike's", "smoking": "no", "takeaway": "yes", "website": "https://www.mountainmikespizza.com/locations/berkeley-san-pablo/"}}, {"type": "node", "id": 440605040, "lat": 37.8817929, "lon": -122.281444, "tags": {"addr:city": "Berkeley", "addr:country": "US", "addr:housenumber": "1586", "addr:state": "CA", "addr:street": "Hopkins Street", "amenity": "restaurant", "cuisine": "pizza", "diet:vegetarian": "yes", "indoor_seating": "no", "name": "Gioia Pizzeria", "opening_hours": "Mo-Sa 11:00-20:00; Su 12:00-19:00", "phone": "(510) 674-0412", "takeaway": "yes", "website": "https://www.gioiapizzeria.com/berkeley"}}, {"type": "node", "id": 444644319, "lat": 37.8588105, "lon": -122.245052, "tags": {"addr:city": "Berkeley", "addr:housenumber": "2984", "addr:postcode": "94705", "addr:state": "CA", "addr:street": "Russell Street", "amenity": "restaurant", "cuisine": "burger", "name": "The Station", "opening_hours": "07:00-21:00"}}, {"type": "node", "id": 462041468, "lat": 37.8680564, "lon": -122.2580948, "tags": {"addr:housenumber": "2519", "addr:street": "Durant Avenue", "addr:unit": "A", "amenity": "restaurant", "check_date": "2023-06-11", "cuisine": "italian", "diet:vegetarian": "yes", "name": "Gypsy's Trattoria Italiano", "outdoor_seating": "yes"}}, {"type": "node", "id": 540535763, "lat": 37.866207, "lon": -122.267273, "tags": {"addr:city": "Berkeley", "addr:housenumber": "2377", "addr:street": "Shattuck Avenue", "amenity": "restaurant", "cuisine": "french", "name": "La Note", "website": "https://www.lanoterestaurant.com/"}}, {"type": "node", "id": 540608969, "lat": 37.8710428, "lon": -122.2684788, "tags": {"addr:city": "Berkeley", "addr:country": "US", "addr:housenumber": "2102", "addr:state": "CA", "addr:street": "Shattuck Avenue", "amenity": "restaurant", "check_date": "2025-03-19", "contact:instagram": "revivalbarandkitchen", "cuisine": "regional;pizza;california;seafood;mediterranean", "name": "Revival Kitchen", "opening_hours": "Mo-Th 16:00-22:00; Fr 15:30-22:00; Sa 17:00-22:00; Sa, Su 10:30-14:00; Su 16:30-21:00", "phone": "(510) 549-9950", "website": "https://www.revivalbarandkitchen.com/", "wheelchair": "yes"}}, {"type": "node", "id": 540608998, "lat": 37.8711067, "lon": -122.2680572, "tags": {"addr:city": "Berkeley", "addr:housenumber": "100", "addr:postcode": "94704", "addr:state": "CA", "addr:street": "Berkeley Square", "addr:unit": "A", "alt_name": "Original Pollo", "amenity": "restaurant", "cuisine": "american", "diet:vegetarian": "yes", "name": "Pollo's", "opening_hours": "Mo-Sa 07:00-16:00", "phone": "(510) 486-8027", "website": "http://orderoriginalpollo.com/"}}, {"type": "node", "id": 540609033, "lat": 37.871489, "lon": -122.26852, "tags": {"addr:city": "Berkeley", "addr:country": "US", "addr:housenumber": "2024", "addr:postcode": "94704", "addr:state": "CA", "addr:street": "Shattuck Avenue", "amenity": "restaurant", "check_date": "2025-03-19", "contact:instagram": "comalnextdoor", "cuisine": "mexican", "drive_through": "no", "name": "Comal Next Door", "opening_hours": "Mo-Su 11:00-20:30", "phone": "510-422-6625", "smoking": "no", "takeaway": "yes", "website": "https://www.comalnextdoor.com/location/comal-next-door-berkeley/", "wheelchair": "yes"}}, {"type": "node", "id": 540609042, "lat": 37.871661, "lon": -122.268518, "tags": {"addr:city": "Berkeley", "addr:country": "US", "addr:housenumber": "2016", "addr:state": "CA", "addr:street": "Shattuck Avenue", "amenity": "restaurant", "contact:instagram": "luciasberkeley", "cuisine": "pizza", "name": "Lucia\u2019s Pizzeria", "opening_hours": "We, Th, Su 17:00-21:00; Fr, Sa 17:00-21:45", "website": "https://www.luciasberkeley.com/", "wheelchair": "yes"}}, {"type": "node", "id": 540712999, "lat": 37.8678213, "lon": -122.270211}, {"type": "node", "id": 540713001, "lat": 37.8678336, "lon": -122.270108}, {"type": "node", "id": 540713003, "lat": 37.8677643, "lon": -122.2700948}, {"type": "node", "id": 540713007, "lat": 37.8677518, "lon": -122.2702007}, {"type": "node", "id": 540983303, "lat": 37.8694706, "lon": -122.2661064, "tags": {"addr:city": "Berkeley", "addr:housenumber": "2200", "addr:street": "Oxford Street", "amenity": "restaurant", "check_date": "2023-03-18", "cuisine": "california;regional", "email": "info@gatherberkeley.com", "facebook": "https://facebook.com/GatherBerkeley", "instagram": "https://instagram.com/gatherberkeley", "name": "Gather", "opening_hours": "We-Th 16:00-20:00; Fr 16:00-21:00; Sa 10:00-21:00; Su 10:00-20:00", "phone": "+1 510-809-0400", "website": "https://gatherberkeley.com", "wheelchair": "yes"}}, {"type": "node", "id": 540994882, "lat": 37.8686607, "lon": -122.267589, "tags": {"addr:city": "Berkeley", "addr:country": "US", "addr:housenumber": "2237", "addr:postcode": "94704", "addr:state": "CA", "addr:street": "Shattuck Avenue", "amenity": "restaurant", "check_date": "2024-12-23", "cuisine": "chinese;malatang", "drive_in": "no", "indoor_seating": "yes", "name": "Zhangliang Malatang", "old_name": "KoKoLo Donburi", "outdoor_seating": "no", "smoking": "no"}}, {"type": "node", "id": 540995436, "lat": 37.8687389, "lon": -122.2668527, "tags": {"addr:city": "Berkeley", "addr:housenumber": "2119", "addr:street": "Kittredge Street", "amenity": "restaurant", "cuisine": "mediterranean", "drive_in": "no", "internet_access": "wlan", "internet_access:fee": "no", "microbrewery": "no", "name": "Razan Organic Kitchen", "opening_hours": "10:00-22:00", "organic": "only", "outdoor_seating": "yes", "phone": "+1 510 4860449", "smoking": "no", "takeaway": "yes", "website": "https://www.razansorganickitchen.com/", "wheelchair": "yes"}}, {"type": "node", "id": 623752524, "lat": 37.8511782, "lon": -122.2523098, "tags": {"amenity": "restaurant", "cuisine": "japanese", "indoor_seating": "yes", "name": "Mitama", "outdoor_seating": "no", "website": "http://www.mitamasushi.com/", "wheelchair": "yes"}}, {"type": "node", "id": 623754431, "lat": 37.8510245, "lon": -122.2522732, "tags": {"amenity": "restaurant", "cuisine": "indian", "indoor_seating": "yes", "name": "Flavors Of India", "outdoor_seating": "no", "wheelchair": "yes"}}, {"type": "node", "id": 663086298, "lat": 37.8586033, "lon": -122.2440933, "tags": {"addr:housenumber": "2922", "addr:street": "Domingo Avenue", "amenity": "restaurant", "cuisine": "american", "name": "Rick and Ann's", "opening_hours": "Th-Tu 08:30-14:00; We 08:30-17:00", "website": "https://www.rickandanns.com/"}}, {"type": "node", "id": 739456463, "lat": 37.8686225, "lon": -122.291755, "tags": {"addr:city": "Berkeley", "addr:country": "US", "addr:housenumber": "2033", "addr:state": "CA", "addr:street": "San Pablo Avenue", "amenity": "restaurant", "name": "Babette", "opening_hours": "We-Sa 09:00-14:00, 17:00-21:00; Su 09:00-14:00", "outdoor_seating": "no"}}, {"type": "node", "id": 778894118, "lat": 37.8728865, "lon": -122.2733475, "tags": {"addr:city": "Berkeley", "addr:country": "US", "addr:housenumber": "1916", "addr:state": "CA", "addr:street": "Martin Luther King Jr Way", "alt_name": "Las Cabanas Mexican Grill & Taqueria", "amenity": "restaurant", "cuisine": "mexican", "name": "Las Cabanas", "phone": "+1-510-845-9303", "website": "https://lascabanasgrill.com/"}}, {"type": "node", "id": 828420917, "lat": 37.8700443, "lon": -122.2832454, "tags": {"amenity": "restaurant", "capacity": "30", "cuisine": "mexican", "delivery": "no", "level": "0", "name": "Taqueria Montecristo", "opening_hours": "Mo-Su 10:00-24:00", "outdoor_seating": "yes", "phone": "+1-510-486-0321", "smoking": "no", "takeaway": "yes", "toilets": "yes", "website": "https://www.montecristotaqueria.com/"}}, {"type": "node", "id": 831726074, "lat": 37.870748, "lon": -122.270463, "tags": {"addr:city": "Berkeley", "addr:country": "US", "addr:housenumber": "2101", "addr:state": "CA", "addr:street": "Milvia Street", "amenity": "restaurant", "cuisine": "vietnamese", "drive_in": "no", "microbrewery": "no", "name": "Pho Tasty", "outdoor_seating": "no", "smoking": "no", "takeaway": "yes", "wheelchair": "yes"}}, {"type": "node", "id": 910883485, "lat": 37.8682996, "lon": -122.2916416, "tags": {"amenity": "restaurant", "cuisine": "italian", "name": "Luca Cucina", "opening_hours": "Mo-Sa 16:00-21:00", "phone": "+15106499718", "website": "https://www.lucacucinaitaliana.com"}}, {"type": "node", "id": 1140526023, "lat": 37.8720196, "lon": -122.2679645, "tags": {"addr:city": "Berkeley", "addr:country": "US", "addr:housenumber": "2000", "addr:postcode": "94704", "addr:state": "CA", "addr:street": "Kala Bagai Way", "amenity": "restaurant", "contact:instagram": "cholita_linda", "cuisine": "mexican;latin_american", "name": "Cholita Linda", "opening_hours": "Mo-Fr 11:00-21:30", "website": "https://www.cholitalinda.com/location-berkeley"}}, {"type": "node", "id": 1241204736, "lat": 37.8576561, "lon": -122.2532665, "tags": {"addr:city": "Berkeley", "addr:housenumber": "2936", "addr:postcode": "94705", "addr:state": "CA", "addr:street": "College Avenue", "amenity": "restaurant", "contact:doordash": "https://www.doordash.com/store/la-mediterranee-berkeley-32522", "contact:facebook": "https://www.facebook.com/lamedberkeley/", "contact:instagram": "https://www.instagram.com/cafelamed_berkeley/", "contact:yelp": "https://www.yelp.com/biz/la-mediterranee-berkeley", "cuisine": "greek;mediterranean", "diet:vegetarian": "yes", "name": "La M\u00e9diteran\u00e9e", "opening_hours": "Tu-Su 12:00-20:30", "phone": "+15105407773", "website": "https://cafelamedberkeley.com/", "wheelchair": "yes"}}, {"type": "node", "id": 1250656738, "lat": 37.8676848, "lon": -122.2661355, "tags": {"addr:housenumber": "2190", "addr:street": "Bancroft Way", "amenity": "restaurant", "cuisine": "chinese", "drive_in": "no", "name": "Great China", "opening_hours": "Mo, We-Su 11:30-14:30; Mo, We, Th 17:30-21:00; Fr 17:30-21:30; Sa, Su 17:00-21:30", "outdoor_seating": "no", "phone": "+1-510-843-7996", "website": "https://www.greatchinaberkeley.com/"}}, {"type": "node", "id": 1281866068, "lat": 37.8752461, "lon": -122.260321, "tags": {"addr:city": "Berkeley", "addr:housenumber": "1870", "addr:postcode": "94709", "addr:state": "CA", "addr:street": "Euclid Avenue", "amenity": "restaurant", "contact:facebook": "https://www.facebook.com/xpressionrestaurant", "contact:instagram": "https://www.instagram.com/xpressionrestaurant/", "cuisine": "indian", "email": "info@xpressionrestaurant.com", "name": "Xpression", "opening_hours": "Mo-Su 11:00-21:00", "phone": "+1 510 704 0109", "website": "https://xpressionrestaurant.com/"}}, {"type": "node", "id": 1318370148, "lat": 37.8753063, "lon": -122.260333, "tags": {"addr:city": "Berkeley", "addr:housenumber": "1866", "addr:postcode": "94709", "addr:state": "CA", "addr:street": "Euclid Avenue", "amenity": "restaurant", "cuisine": "mediterranean;canadian;poutine;shawarma", "diet:halal": "yes", "name": "My-O-My", "opening_hours": "Mo-Fr 11:00-21:00; Sa off; Su 12:00-18:00", "phone": "+15103564460", "takeaway": "yes", "toilets": "yes"}}, {"type": "node", "id": 1326065130, "lat": 37.8677125, "lon": -122.313853, "tags": {"amenity": "restaurant", "name": "Hornblower", "website": "https://www.cityexperiences.com/berkeley/city-cruises/"}}, {"type": "node", "id": 1419597327, "lat": 37.8670441, "lon": -122.2586764, "tags": {"addr:housenumber": "2399", "addr:street": "Telegraph Avenue", "amenity": "restaurant", "check_date": "2023-06-11", "cuisine": "ice_cream", "name": "Cream", "opening_hours": "Mo-Fr 12:00-24:00, Sa,Su 11:00-23:00"}}, {"type": "node", "id": 1419609091, "lat": 37.8702988, "lon": -122.2671012, "tags": {"addr:city": "Berkeley", "addr:housenumber": "2130", "addr:postcode": "94704", "addr:state": "CA", "addr:street": "Center Street", "amenity": "restaurant", "check_date": "2023-06-12", "cuisine": "japanese", "name": "Ippuku", "opening_hours": "We-Su 17:00-22:00", "takeaway": "no", "website": "https://ippukuberkeley.com/"}}, {"type": "node", "id": 1419796896, "lat": 37.8719113, "lon": -122.2689878, "tags": {"addr:city": "Berkeley", "addr:country": "US", "addr:housenumber": "2072", "addr:state": "CA", "addr:street": "University Avenue", "amenity": "restaurant", "cuisine": "italian", "drive_in": "no", "internet_access": "wlan", "internet_access:fee": "no", "microbrewery": "no", "name": "Bobby G's Pizzeria", "opening_hours": "Mo-Th, Su 11:00-23:00; Fr, Sa 11:00-02:00", "outdoor_seating": "yes", "smoking": "no", "takeaway": "yes", "website": "https://bobbygspizzeria.com/", "wheelchair": "yes"}}, {"type": "node", "id": 1421339345, "lat": 37.8718606, "lon": -122.255922, "tags": {"amenity": "restaurant", "name": "The Faculty Club"}}, {"type": "node", "id": 1556259907, "lat": 37.8691529, "lon": -122.2686622, "tags": {"addr:city": "Berkeley", "addr:housenumber": "2086", "addr:postcode": "94704", "addr:state": "CA", "addr:street": "Allston Way", "amenity": "restaurant", "check_date": "2024-04-07", "cuisine": "mediterranean", "name": "Zino", "phone": "+1-510-6499466", "website": "https://zinoberkeley.com/"}}, {"type": "node", "id": 1564797227, "lat": 37.8587029, "lon": -122.2666984, "tags": {"addr:housenumber": "2787", "addr:postcode": "94705", "addr:street": "Shattuck Avenue", "amenity": "restaurant", "check_date": "2025-03-01", "cuisine": "american", "diet:gluten_free": "yes", "diet:vegetarian": "yes", "name": "Sconehenge", "opening_hours": "Mo,Th,Fr 08:00-13:30; Sa-Su 08:00-14:00", "outdoor_seating": "no", "phone": "(510) 845-5168", "website": "https://www.sconehengeberkeley.com/", "wheelchair": "yes"}}, {"type": "node", "id": 1598439746, "lat": 37.871874, "lon": -122.267579, "tags": {"addr:city": "Berkeley", "addr:country": "US", "addr:housenumber": "2015", "addr:postcode": "94704", "addr:state": "CA", "addr:street": "Kala Bagai Way", "amenity": "restaurant", "brand": "Ippudo", "brand:en": "Ippudo", "brand:ja": "\u4e00\u98a8\u5802", "brand:wikidata": "Q6065417", "cocktails": "no", "contact:instagram": "ippudo", "cuisine": "ramen", "diet:halal": "no", "diet:kosher": "no", "diet:vegan": "yes", "diet:vegetarian": "yes", "drink:beer": "yes", "drink:sake": "yes", "indoor_seating": "yes", "name": "Ippudo", "name:en": "Ippudo", "name:ja": "\u4e00\u98a8\u5802", "opening_hours": "Mo-Sa 11:30-22:00; Su 11:30-21:30", "outdoor_seating": "no", "phone": "+15106668807", "reservation": "no", "takeaway": "no", "website": "https://ippudous.com/", "website:menu": "https://qrco.de/bbzgyX", "wheelchair": "yes"}}, {"type": "node", "id": 1669797930, "lat": 37.8690771, "lon": -122.293087, "tags": {"addr:city": "Berkeley", "addr:country": "US", "addr:housenumber": "1025", "addr:postcode": "94702", "addr:state": "CA", "addr:street": "University Avenue", "amenity": "restaurant", "cuisine": "pakistani", "name": "Kabana", "website": "http://thekabanarestaurants.com/"}}, {"type": "node", "id": 1669803325, "lat": 37.8696952, "lon": -122.292039, "tags": {"addr:housenumber": "1955", "amenity": "restaurant", "cuisine": "barbecue;burger", "name": "Everett and Jones", "opening_hours": "We-Su 12:00-19:00", "phone": "510-548-8261", "website": "https://eandjbbq.com/our-locations/"}}, {"type": "node", "id": 1669824964, "lat": 37.869537, "lon": -122.290156, "tags": {"addr:city": "Berkeley", "addr:country": "US", "addr:housenumber": "1181", "addr:state": "CA", "addr:street": "University Avenue", "amenity": "restaurant", "cuisine": "thai", "name": "Eat @ Thai", "phone": "+1 510 5483278"}}, {"type": "node", "id": 1671543268, "lat": 37.8697895, "lon": -122.2879626}, {"type": "node", "id": 1671543276, "lat": 37.8699055, "lon": -122.2878853}, {"type": "node", "id": 1671543293, "lat": 37.8698004, "lon": -122.2878663}, {"type": "node", "id": 1671543305, "lat": 37.8698947, "lon": -122.2879815}, {"type": "node", "id": 1680255991, "lat": 37.8682414, "lon": -122.2675427, "tags": {"addr:city": "Berkeley", "addr:country": "US", "addr:housenumber": "2261", "addr:state": "CA", "addr:street": "Shattuck Avenue", "amenity": "restaurant", "check_date": "2025-03-31", "contact:instagram": "https://www.instagram.com/explore/locations/916489", "cuisine": "louisiana", "drive_in": "no", "level": "0", "microbrewery": "no", "name": "Angeline's Louisiana Kitchen", "opening_hours": "Tu-Fr 11:30-21:00; Sa-Su 12:00-20:30; Mo off", "outdoor_seating": "sidewalk", "phone": "+1 510 5486900", "smoking": "no", "website": "https://angelineskitchen.com", "wheelchair": "yes"}}, {"type": "node", "id": 1692719932, "lat": 37.8532822, "lon": -122.291639, "tags": {"amenity": "restaurant", "cuisine": "vietnamese", "name": "MintLeaf", "opening_hours": "Mo-Su 11:30-15:00, 16:30-20:00", "website": "https://mintleafvr.com/"}}, {"type": "node", "id": 1718651895, "lat": 37.8811399, "lon": -122.2893345, "tags": {"addr:city": "Berkeley", "addr:country": "US", "addr:housenumber": "1316", "addr:state": "CA", "addr:street": "Gilman Street", "amenity": "restaurant", "contact:facebook": "kikusushiberkeley", "cuisine": "japanese", "diet:vegetarian": "yes", "name": "Kiku Sushi", "phone": "+1 510-525-5458", "website": "https://openmenu.com/restaurant/0595a790-a84b-11e2-aa59-00163eeae34c"}}, {"type": "node", "id": 1718653746, "lat": 37.8816582, "lon": -122.29051, "tags": {"addr:country": "US", "addr:housenumber": "1277", "addr:state": "CA", "addr:street": "Gilman Street", "amenity": "restaurant", "contact:instagram": "thaicornergilman", "cuisine": "thai", "name": "Thai Corner", "opening_hours": "Tu-Su 11:30-21:30", "phone": "+1-510-647-9300", "website": "https://www.thaicornergilman.com/"}}, {"type": "node", "id": 1718826322, "lat": 37.8802121, "lon": -122.2686103, "tags": {"addr:city": "Berkeley", "addr:country": "US", "addr:housenumber": "2114", "addr:postcode": "94709", "addr:state": "CA", "addr:street": "Vine Street", "amenity": "restaurant", "check_date": "2023-08-19", "cuisine": "middle_eastern;mediterranean", "diet:vegetarian": "yes", "name": "Fava", "old_name": "Juice Bar Collective", "opening_hours": "Tu-Sa 11:00-14:00", "phone": "+1-510-944-7010", "website": "https://www.favaonvine.com/"}}, {"type": "node", "id": 1723313107, "lat": 37.8710195, "lon": -122.2675369, "tags": {"addr:city": "Berkeley", "addr:country": "US", "addr:housenumber": "2117", "addr:state": "CA", "addr:street": "Kala Bagai Way", "amenity": "restaurant", "check_date": "2023-05-27", "cuisine": "sandwich", "drive_in": "no", "internet_access": "no", "microbrewery": "no", "name": "Sandwich Zone", "opening_hours": "Mo-Fr 08:00-15:00", "outdoor_seating": "no", "smoking": "no", "takeaway": "yes", "website": "https://ordersandwichzone.com/", "wheelchair": "yes"}}, {"type": "node", "id": 1762442382, "lat": 37.871107, "lon": -122.272781, "tags": {"addr:city": "Berkeley", "addr:country": "US", "addr:housenumber": "2033", "addr:postcode": "94704", "addr:state": "CA", "addr:street": "Martin Luther King Junior Way", "amenity": "restaurant", "check_date": "2025-05-06", "cuisine": "japanese;sushi", "drive_in": "no", "microbrewery": "no", "name": "Sun Sun Sushi Shop", "phone": "510 898 1182", "smoking": "no", "wheelchair": "yes"}}, {"type": "node", "id": 1798863798, "lat": 37.869669, "lon": -122.300711, "tags": {"amenity": "restaurant", "cuisine": "mediterranean", "diet:vegan": "no", "diet:vegetarian": "yes", "indoor_seating": "yes", "internet_access": "no", "name": "Zut!", "outdoor_seating": "yes", "smoking": "no", "website": "https://www.zutonfourth.com/", "wheelchair": "yes"}}, {"type": "node", "id": 1804658584, "lat": 37.868181, "lon": -122.259794, "tags": {"amenity": "restaurant", "check_date": "2022-03-04", "cuisine": "korean", "name": "Toust"}}, {"type": "node", "id": 1940307418, "lat": 37.8589712, "lon": -122.291505, "tags": {"addr:city": "Berkeley", "addr:housenumber": "2570", "addr:postcode": "94710", "addr:street": "9th Street", "amenity": "restaurant", "name": "Tarocco", "opening_hours": "Tu-Sa 11:00-14:30", "phone": "(510) 898-1312", "website": "https://mytarocco.com/"}}, {"type": "node", "id": 1940309826, "lat": 37.8575904, "lon": -122.291076, "tags": {"addr:city": "Berkeley", "addr:housenumber": "941", "addr:postcode": "94710", "addr:street": "Carleton Street", "amenity": "restaurant", "cuisine": "mexican", "name": "Juan's Place", "opening_hours": "Mo-Fr 11:00-21:00; Sa, Su 17:30-20:30", "phone": "5108456904", "website": "http://places.singleplatform.com/juans-place-1/menu?ref=osm", "wheelchair": "yes", "wikimedia_commons": "File:20220929 Juan's place, Mexican restaurant.jpg"}}, {"type": "node", "id": 1940316937, "lat": 37.8604798, "lon": -122.2896079, "tags": {"addr:city": "Berkeley", "addr:housenumber": "2514", "addr:postcode": "94702", "addr:street": "San Pablo Avenue", "amenity": "restaurant", "check_date": "2025-04-05", "cuisine": "lao", "email": "laogarden@laogarden.net", "name": "Lao Garden", "website:menu": "https://www.laogarden.net/menu"}}, {"type": "node", "id": 2059093052, "lat": 37.8718309, "lon": -122.272119, "tags": {"addr:city": "Berkeley", "addr:country": "US", "addr:housenumber": "1941", "addr:state": "CA", "addr:street": "University Avenue", "amenity": "restaurant", "cuisine": "japanese", "name": "Kinda Izakaya", "wheelchair": "yes"}}, {"type": "node", "id": 2100540691, "lat": 37.8714605, "lon": -122.2675685, "tags": {"addr:city": "Berkeley", "addr:country": "US", "addr:housenumber": "2037", "addr:state": "CA", "addr:street": "Kala Bagai Way", "amenity": "restaurant", "cuisine": "salvadoran;mexican;pupusa", "drive_in": "no", "name": "Las Delicias", "opening_hours": "Mo-Sa 11:00-20:00", "website": "https://www.lasdelicias.vip/"}}, {"type": "node", "id": 2100543486, "lat": 37.871379, "lon": -122.267537, "tags": {"addr:city": "Berkeley", "addr:country": "US", "addr:housenumber": "2045", "addr:state": "CA", "addr:street": "Kala Bagai Way", "amenity": "restaurant", "cuisine": "vietnamese", "drive_in": "no", "microbrewery": "no", "name": "Saigon Express", "opening_hours": "Mo-Fr 10:00-19:00", "outdoor_seating": "no", "phone": "+1 510 486 1778", "smoking": "no", "takeaway": "yes", "wheelchair": "yes"}}, {"type": "node", "id": 2131580967, "lat": 37.864304, "lon": -122.290328, "tags": {"amenity": "restaurant", "contact:instagram": "https://www.instagram.com/tortellino_sf/", "cuisine": "coffee_shop", "name": "Afgan burrito", "opening_hours": "Mo-Su 09:00-21:00", "phone": "(510) 984-0661", "website": "https://www.tortellinosf.com/"}}, {"type": "node", "id": 2186231182, "lat": 37.8709764, "lon": -122.2675846, "tags": {"addr:city": "Berkeley", "addr:housenumber": "2199", "addr:state": "CA", "addr:street": "Kala Bagai Way", "amenity": "restaurant", "cuisine": "pizza", "drive_in": "no", "microbrewery": "no", "name": "Arinell Pizza", "outdoor_seating": "no", "phone": "510-841-4035", "takeaway": "yes", "website": "https://www.arinellpizza.net/", "wheelchair": "yes"}}, {"type": "node", "id": 2195112579, "lat": 37.8754816, "lon": -122.2605508, "tags": {"addr:city": "Berkeley", "addr:housenumber": "1834", "addr:postcode": "94709", "addr:state": "CA", "addr:street": "Euclid Avenue", "amenity": "restaurant", "check_date": "2025-03-13", "cuisine": "pizza", "name": "La Val's Pizza"}}, {"type": "node", "id": 2247181637, "lat": 37.8715749, "lon": -122.2716142, "tags": {"addr:city": "Berkeley", "addr:country": "US", "addr:housenumber": "1954", "addr:postcode": "94704", "addr:state": "CA", "addr:street": "University Avenue", "amenity": "restaurant", "check_date": "2025-02-08", "cuisine": "sandwich", "diet:vegan": "only", "indoor_seating": "yes", "name": "The Butcher's Son", "opening_hours": "Mo,Th,Fr 11:00-20:00, Tu,We 11:00-15:00, Sa,Su 09:00-17:00", "outdoor_seating": "patio", "phone": "+1-510-984-0818", "website": "https://www.thebutchersveganson.com/", "wheelchair": "yes"}}, {"type": "node", "id": 2247184686, "lat": 37.8715901, "lon": -122.2714953, "tags": {"addr:city": "Berkeley", "addr:country": "US", "addr:housenumber": "1960", "addr:state": "CA", "addr:street": "University Avenue", "amenity": "restaurant", "check_date": "2025-02-08", "cuisine": "pizza", "drive_in": "no", "microbrewery": "no", "name": "Rose Pizzeria", "opening_hours": "Mo-Tu off; We-Su 12:00-21:00", "outdoor_seating": "yes", "phone": "+1-510-8598645", "smoking": "no", "takeaway": "yes", "website": "https://www.rosepizzeria.com/", "wheelchair": "yes"}}, {"type": "node", "id": 2263422860, "lat": 37.8720893, "lon": -122.2702129, "tags": {"addr:city": "Berkeley", "addr:housenumber": "2017", "addr:postcode": "94704", "addr:state": "CA", "addr:street": "University Avenue", "amenity": "restaurant", "cuisine": "pizza", "drive_in": "no", "microbrewery": "no", "name": "Red Tomato Pizza House", "opening_hours": "Mo-Su 11:00-21:00", "outdoor_seating": "no", "phone": "+1 510 8456666", "smoking": "no", "takeaway": "yes", "website": "https://redtomatoberkeley.com/", "wheelchair": "yes"}}, {"type": "node", "id": 2281419391, "lat": 37.873344, "lon": -122.268739, "tags": {"addr:city": "Berkeley", "addr:country": "US", "addr:housenumber": "1926", "addr:state": "CA", "addr:street": "Shattuck Avenue", "amenity": "restaurant", "cuisine": "ramen", "name": "Tsuruya", "smoking": "no", "website": "https://www.instagram.com/tsuruyaramen_berkeley/", "wheelchair": "yes"}}, {"type": "node", "id": 2286101989, "lat": 37.872158, "lon": -122.267132, "tags": {"addr:city": "Berkeley", "addr:country": "US", "addr:housenumber": "2156", "addr:state": "CA", "addr:street": "University Avenue", "amenity": "restaurant", "cuisine": "japanese", "name": "Simply Bowl", "opening_hours": "Mo-Su 11:00-15:30,17:00-21:00", "phone": "+1 510 647 9494", "website": "https://simply-bowl.menu-world.com/"}}, {"type": "node", "id": 2322519344, "lat": 37.8687321, "lon": -122.2669185, "tags": {"addr:city": "Berkeley", "addr:housenumber": "2115", "addr:postcode": "94704", "addr:state": "CA", "addr:street": "Kittredge Street", "amenity": "restaurant", "cuisine": "asian;chinese", "microbrewery": "no", "name": "Tasty Pot", "name:zh": "\u5473\u9f0e\u5c0f\u706b\u9505", "opening_hours": "Mo-Su 11:45-14:15, Su-Th 17:00-20:30, Fr,Sa 17:00-20:45", "outdoor_seating": "no", "smoking": "no", "wheelchair": "yes"}}, {"type": "node", "id": 2322525666, "lat": 37.868057, "lon": -122.268154, "tags": {"addr:city": "Berkeley", "addr:housenumber": "2272", "addr:street": "Shattuck Avenue", "amenity": "restaurant", "check_date": "2025-02-17", "cuisine": "asian;noodle", "diet:vegetarian": "yes", "name": "Toss Noodle Bar", "opening_hours": "Mo-Su 11:00-22:00", "phone": "+1 510-845-8677", "takeaway": "yes", "website": "https://tossnoodlebar.com", "wheelchair": "yes"}}, {"type": "node", "id": 2326546632, "lat": 37.8718947, "lon": -122.2691177, "tags": {"addr:city": "Berkeley", "addr:country": "US", "addr:housenumber": "2068", "addr:state": "CA", "addr:street": "University Avenue", "amenity": "restaurant", "cuisine": "thai", "name": "Imm Thai Street Food", "opening_hours": "Mo-Fr 11:00-22:00; Sa, Su 11:30-22:00", "phone": "+1 510 8981123", "toilets:wheelchair": "no", "website": "https://www.immthaistreetfood.com/", "wheelchair": "yes"}}, {"type": "node", "id": 2326547409, "lat": 37.8718164, "lon": -122.2697291, "tags": {"addr:city": "Berkeley", "addr:country": "US", "addr:housenumber": "2042", "addr:state": "CA", "addr:street": "University Avenue", "amenity": "restaurant", "cuisine": "salvadoran", "drive_in": "no", "microbrewery": "no", "name": "Platano", "opening_hours": "Su-Th 11:30-21:00, Fr,Sa 11:30-22:00", "outdoor_seating": "no", "smoking": "no", "website": "https://www.cafeplatano.com/", "wheelchair": "yes"}}, {"type": "node", "id": 2326547549, "lat": 37.8717592, "lon": -122.270175, "tags": {"addr:city": "Berkeley", "addr:country": "US", "addr:housenumber": "2020", "addr:state": "CA", "addr:street": "University Avenue", "amenity": "restaurant", "cuisine": "tibetan", "name": "Cafe Tibet", "opening_hours": "Mo, We-Su 17:00-22:00; Mo, We-Fr 11:30-14:30", "website": "http://cafetibetberkeley.com/"}}, {"type": "node", "id": 2329583703, "lat": 37.881066, "lon": -122.2956844, "tags": {"addr:city": "Berkeley", "addr:country": "US", "addr:housenumber": "1235", "addr:postcode": "94706", "addr:state": "CA", "addr:street": "San Pablo Avenue", "amenity": "restaurant", "cuisine": "barbecue", "name": "KC's BBQ", "opening_hours": "Tu-Su 12:00-18:00", "phone": "+1-510-526-6325", "website": "https://kcsbbq.com/"}}, {"type": "node", "id": 2349801494, "lat": 37.871581, "lon": -122.268524, "tags": {"addr:city": "Berkeley", "addr:country": "US", "addr:housenumber": "2020", "addr:state": "CA", "addr:street": "Shattuck Avenue", "amenity": "restaurant", "cuisine": "mexican", "name": "Comal", "opening_hours": "Mo-Th, Su 17:00-22:00; Fr, Sa 17:00-23:00", "outdoor_seating": "yes", "website": "https://www.comalberkeley.com/", "wheelchair": "yes"}}, {"type": "node", "id": 2350137845, "lat": 37.8708242, "lon": -122.2684597, "tags": {"addr:city": "Berkeley", "addr:country": "US", "addr:housenumber": "2110", "addr:state": "CA", "addr:street": "Shattuck Avenue", "amenity": "restaurant", "check_date": "2025-03-19", "cuisine": "sushi", "diet:vegetarian": "yes", "level": "0", "name": "Sushi Secrets", "opening_hours": "Mo-Sa 11:00-20:00; Su off", "outdoor_seating": "yes", "smoking": "no", "website": "https://order.online/store/sushi-secrets-berkeley-732243/"}}, {"type": "node", "id": 2350153997, "lat": 37.871803, "lon": -122.272398, "tags": {"addr:city": "Berkeley", "addr:country": "US", "addr:housenumber": "1923", "addr:state": "CA", "addr:street": "University Avenue", "amenity": "restaurant", "contact:instagram": "masaramenbistro", "cuisine": "ramen", "name": "Masa", "opening_hours": "Tu-Su 11:30-14:30, 17:00-21:00", "website": "https://www.toasttab.com/masaramenbistro"}}, {"type": "node", "id": 2350156188, "lat": 37.871749, "lon": -122.272781, "tags": {"addr:city": "Berkeley", "addr:country": "US", "addr:housenumber": "1903", "addr:state": "CA", "addr:street": "University Avenue", "amenity": "restaurant", "cuisine": "indian", "diet:vegan": "yes", "diet:vegetarian": "yes", "name": "Udupi Palace", "opening_hours": "Mo, We-Su 11:30-21:00", "phone": "(510)843-6600", "website": "http://www.udupipalaceberkeleyca.com/"}}, {"type": "node", "id": 2379687292, "lat": 37.867978, "lon": -122.267541, "tags": {"addr:city": "Berkeley", "addr:housenumber": "2283", "addr:street": "Shattuck Avenue", "amenity": "restaurant", "cuisine": "thai", "name": "Little Plearn Thai Kitchen", "phone": "(510) 704-1442"}}, {"type": "node", "id": 2379687545, "lat": 37.867165, "lon": -122.267459, "tags": {"addr:city": "Berkeley", "addr:housenumber": "2323", "addr:street": "Shattuck Avenue", "amenity": "restaurant", "check_date": "2024-12-23", "cuisine": "chinese", "level": "0", "name": "\u7737\u6e58 Easterly", "name:en": "Easterly", "name:zh": "\u7737\u6e58", "old_name": "Namaste Madras Cuisine", "opening_hours": "Mo,We-Su 10:00-14:00,17:00-21:00; Tu off", "phone": "+1 510-647-8008", "wheelchair": "yes"}}, {"type": "node", "id": 2379688396, "lat": 37.865935, "lon": -122.267327, "tags": {"addr:city": "Berkeley", "addr:housenumber": "2399", "addr:postcode": "94704", "addr:street": "Shattuck Avenue", "amenity": "restaurant", "cuisine": "japanese", "diet:vegetarian": "yes", "name": "Nikko Sushi", "opening_hours": "Mo-Su 12:00-20:30", "phone": "+1-510-704-8224", "website": "http://www.nikkoberkeley.com"}}, {"type": "node", "id": 2437969084, "lat": 37.8720931, "lon": -122.270062, "tags": {"addr:city": "Berkeley", "addr:country": "US", "addr:housenumber": "2021", "addr:state": "CA", "addr:street": "University Avenue", "amenity": "restaurant", "cuisine": "mexican", "drive_in": "no", "microbrewery": "no", "name": "El burro Picante", "opening_hours": "Mo-Su 11:00-00:00", "outdoor_seating": "no", "smoking": "no", "takeaway": "yes", "website": "https://www.burropicante.com/", "wheelchair": "yes"}}, {"type": "node", "id": 2475991057, "lat": 37.8705211, "lon": -122.2998585, "tags": {"addr:city": "Berkeley", "addr:housenumber": "1799 E", "addr:street": "Fourth Street", "amenity": "restaurant", "check_date": "2025-02-08", "microbrewery": "no", "name": "Cafe M", "outdoor_seating": "yes", "smoking": "no"}}, {"type": "node", "id": 2501122175, "lat": 37.8702761, "lon": -122.2672785, "tags": {"addr:city": "Berkeley", "addr:housenumber": "2124", "addr:street": "Center Street", "amenity": "restaurant", "check_date": "2023-11-11", "cuisine": "seafood", "name": "Bag o'Crab", "website": "https://www.bagocrabusa.com/"}}, {"type": "node", "id": 2557875159, "lat": 37.856396, "lon": -122.2531337, "tags": {"addr:housenumber": "2984", "addr:street": "College Avenue", "amenity": "restaurant", "check_date": "2025-03-05", "check_date:opening_hours": "2022-04-25", "cuisine": "indian", "diet:vegetarian": "yes", "fax": "+15108418688", "name": "House Of Curries", "opening_hours": "Mo-Su 11:00-22:00", "phone": "+1 510-841-1688", "website": "https://houseofcurries.com/", "wheelchair": "yes"}}, {"type": "node", "id": 2557875793, "lat": 37.8564074, "lon": -122.2528634, "tags": {"addr:city": "Berkeley", "addr:housenumber": "2989", "addr:street": "College Avenue", "amenity": "restaurant", "check_date": "2025-03-05", "cuisine": "mexican", "drive_in": "no", "name": "Gordo Taqueria", "opening_hours": "Mo-Su 10:00-22:00", "outdoor_seating": "no", "smoking": "no", "takeaway": "yes", "website": "http://gordotaqueria.co/", "wheelchair": "yes"}}, {"type": "node", "id": 2557946247, "lat": 37.8574846, "lon": -122.2532495, "tags": {"addr:city": "Berkeley", "addr:housenumber": "2944", "addr:street": "College Avenue", "amenity": "restaurant", "contact:facebook": "https://www.facebook.com/summerkitchenbakeshop/", "contact:instagram": "https://www.instagram.com/summerkitchenbakeshop/", "name": "Summer Kitchen + Bakeshop", "outdoor_seating": "no", "phone": "(510) 981-0538", "smoking": "no", "takeaway": "yes", "website": "https://www.summerkitchenbakeshop.com/", "wheelchair": "yes"}}, {"type": "node", "id": 2698950868, "lat": 37.8700875, "lon": -122.2689743}, {"type": "node", "id": 2819609607, "lat": 37.8694349, "lon": -122.2668186, "tags": {"addr:city": "Berkeley", "addr:housenumber": "2134", "addr:postcode": "94704", "addr:state": "CA", "addr:street": "Allston Way", "amenity": "restaurant", "contact:facebook": "https://m.facebook.com/CancunBerkeley/", "contact:instagram": "https://www.instagram.com/cancunberkeley/", "cuisine": "mexican", "drive_in": "no", "email": "cancun@sabormexicano.com", "name": "Canc\u00fan", "opening_hours": "Mo-Th 10:30-22:00; Fr-Sa 10:30-22:30; Su 12:00-21:00", "outdoor_seating": "parklet", "phone": "+1 510 5490964", "smoking": "no", "takeaway": "yes", "website": "https://sabormexicano.com/cancun/", "wheelchair": "yes"}}, {"type": "node", "id": 2862779914, "lat": 37.8642588, "lon": -122.3136384}, {"type": "node", "id": 2862779915, "lat": 37.8642717, "lon": -122.3135721}, {"type": "node", "id": 2862779916, "lat": 37.8643167, "lon": -122.3135861}, {"type": "node", "id": 2862779917, "lat": 37.864347, "lon": -122.3134297}, {"type": "node", "id": 2862779918, "lat": 37.8643009, "lon": -122.3134154}, {"type": "node", "id": 2862779919, "lat": 37.8643181, "lon": -122.3133268}, {"type": "node", "id": 2862779920, "lat": 37.8641463, "lon": -122.3132734}, {"type": "node", "id": 2862779921, "lat": 37.8641317, "lon": -122.3133489}, {"type": "node", "id": 2862779924, "lat": 37.8641026, "lon": -122.3135101}, {"type": "node", "id": 2862779925, "lat": 37.864088, "lon": -122.3135854}, {"type": "node", "id": 2894577901, "lat": 37.8714827, "lon": -122.29272, "tags": {"amenity": "restaurant", "cuisine": "mexican", "name": "Casa Latina", "opening_hours": "Mo-Su 07:00-22:00", "phone": "(510) 558-7177"}}, {"type": "node", "id": 2956705633, "lat": 37.871843, "lon": -122.2695214, "tags": {"addr:city": "Berkeley", "addr:country": "US", "addr:housenumber": "2050", "addr:state": "CA", "addr:street": "University Avenue", "amenity": "restaurant", "cuisine": "korean;american;burger", "name": "Berkeley Social Club", "phone": "+15109005858", "website": "https://www.berkeley-socialclub.com/"}}, {"type": "node", "id": 2965338413, "lat": 37.8671105, "lon": -122.2586234, "tags": {"addr:housenumber": "2395", "addr:street": "Telegraph Avenue", "amenity": "restaurant", "check_date": "2023-06-11", "cuisine": "asian", "name": "Koja Kitchen", "opening_hours": "Mo-Su 11:00-21:00", "website": "https://www.kojakitchen.com/"}}, {"type": "node", "id": 3036917827, "lat": 37.8637026, "lon": -122.25886, "tags": {"addr:city": "Berkeley", "addr:housenumber": "2566B", "addr:postcode": "94704", "addr:state": "CA", "addr:street": "Telegraph Avenue", "amenity": "restaurant", "cuisine": "japanese", "name": "Kiraku", "opening_hours": "We-Sa 16:30-20:00", "website": "https://kirakuberkeley.com/"}}, {"type": "node", "id": 3075614341, "lat": 37.8728113, "lon": -122.2686736, "tags": {"addr:city": "Berkeley", "addr:country": "US", "addr:housenumber": "1956", "addr:state": "CA", "addr:street": "Shattuck Avenue", "amenity": "restaurant", "check_date": "2025-03-19", "cuisine": "japanese", "diet:vegan": "only", "drive_in": "no", "level": "0", "microbrewery": "no", "name": "Tane Vegan Izakaya", "opening_hours": "Mo-Su 16:30-21:30", "opening_hours:signed": "no", "outdoor_seating": "no", "phone": "+1 510-898-1514", "smoking": "no", "website": "https://taneveganizakayaca.com", "wheelchair": "yes"}}, {"type": "node", "id": 3166978497, "lat": 37.8555249, "lon": -122.2664023, "tags": {"amenity": "restaurant", "cuisine": "pizza", "name": "Emilia's Pizzeria"}}, {"type": "node", "id": 3166978499, "lat": 37.8556546, "lon": -122.2664027, "tags": {"amenity": "restaurant", "cuisine": "taqueria", "name": "La Familia", "website": "https://taquerialafamiliaberkeley.com/"}}, {"type": "node", "id": 3166978504, "lat": 37.8546999, "lon": -122.266286, "tags": {"addr:city": "Berkeley", "addr:country": "US", "addr:housenumber": "3015", "addr:state": "CA", "addr:street": "Shattuck Avenue", "amenity": "restaurant", "cuisine": "indian", "delivery": "yes", "name": "Munch India", "opening_hours": "We-Sa 15:00-20:00", "takeaway": "only", "website": "http://munchindia.com"}}, {"type": "node", "id": 3191146339, "lat": 37.8698541, "lon": -122.267671, "tags": {"addr:city": "Berkeley", "addr:housenumber": "2177", "addr:postcode": "94704", "addr:street": "Shattuck Avenue", "amenity": "restaurant", "check_date": "2024-12-23", "check_date:opening_hours": "2022-11-05", "cuisine": "onigiri", "diet:vegan": "yes", "diet:vegetarian": "yes", "indoor_seating": "no", "level": "0", "name": "Oori Rice Triangles", "opening_hours": "Mo-Sa 11:00-20:00; Su 11:00-18:00", "outdoor_seating": "no", "takeaway": "only", "wheelchair": "yes"}}, {"type": "node", "id": 3194482961, "lat": 37.8816382, "lon": -122.2696704, "tags": {"addr:city": "Berkeley", "addr:country": "US", "addr:housenumber": "1400", "addr:state": "CA", "addr:street": "Shattuck Avenue", "amenity": "restaurant", "cuisine": "japanese;sushi", "name": "Kamado Sushi"}}, {"type": "node", "id": 3199600526, "lat": 37.8528896, "lon": -122.2660257, "tags": {"addr:city": "Berkeley", "addr:country": "US", "addr:housenumber": "3105", "addr:postcode": "94705", "addr:state": "CA", "addr:street": "Shattuck Avenue", "amenity": "restaurant", "cuisine": "mexican", "name": "Los Cilantros", "opening_hours": "We-Fr 11:00-14:00,17:30-21:00; Sa,Su 10:00-14:30,17:30-21:00", "phone": "+1 510-990-6710", "website": "http://loscilantrossf.com"}}, {"type": "node", "id": 3233169148, "lat": 37.8503552, "lon": -122.2711406}, {"type": "node", "id": 3233169149, "lat": 37.8503255, "lon": -122.2713602}, {"type": "node", "id": 3233169152, "lat": 37.8503103, "lon": -122.2714727}, {"type": "node", "id": 3233169154, "lat": 37.8502646, "lon": -122.2711777}, {"type": "node", "id": 3233169155, "lat": 37.8502272, "lon": -122.2714547}, {"type": "node", "id": 3233169156, "lat": 37.8502309, "lon": -122.2714269}, {"type": "node", "id": 3233169160, "lat": 37.8502481, "lon": -122.2713002}, {"type": "node", "id": 3233170361, "lat": 37.8502459, "lon": -122.271316}, {"type": "node", "id": 3383974692, "lat": 37.8707499, "lon": -122.2806804, "tags": {"addr:country": "US", "addr:housenumber": "1581", "addr:state": "CA", "addr:street": "University Avenue", "amenity": "restaurant", "diet:vegetarian": "yes", "name": "Three Stone Hearth", "note": "Prepared food pickup", "opening_hours": "We 16:00-19:00, Th 10:00-16:00, Fr 14:00-18:00, Sa 09:00-15:00", "takeaway": "yes", "website": "https://threestonehearth.com/", "wheelchair": "yes"}}, {"type": "node", "id": 3494337507, "lat": 37.8701503, "lon": -122.3012746, "tags": {"addr:country": "US", "addr:housenumber": "1782", "addr:state": "CA", "amenity": "restaurant", "contact:email": "info@tacubaya.net", "contact:phone": "+1 510-525-5160", "contact:website": "http://www.tacubaya.net/", "cuisine": "mexican", "name": "Tacubaya", "opening_hours": "Mo-Fr 10:00-21:00; Sa-Su 09:00-21:00", "outdoor_seating": "yes", "website": "https://www.tacubaya.net/", "wheelchair": "yes"}}, {"type": "node", "id": 3509545437, "lat": 37.8589942, "lon": -122.2594876, "tags": {"addr:city": "Berkeley", "addr:housenumber": "2826", "addr:postcode": "94705", "addr:state": "CA", "addr:street": "Telegraph Avenue", "amenity": "restaurant", "cuisine": "burmese", "name": "Royal Rangoon", "opening_hours": "Mo-Su 11:30 - 14:30; Mo-Su 17:00 - 22:00", "phone": "+1 510 6479744", "smoking": "no", "takeaway": "yes", "website": "https://royalrangoon.com/", "wheelchair": "yes"}}, {"type": "node", "id": 3553118722, "lat": 37.8717557, "lon": -122.2728651, "tags": {"addr:city": "Berkeley", "addr:country": "US", "addr:housenumber": "1901", "addr:state": "CA", "addr:street": "University Avenue", "amenity": "restaurant", "cuisine": "kurdish;mediterranean", "diet:vegetarian": "yes", "name": "Rojbas Grill", "opening_hours": "Mo, We-Su 11:00-21:00", "website": "http://www.rojbasgrill.com/"}}, {"type": "node", "id": 3573557993, "lat": 37.8800546, "lon": -122.297094, "tags": {"addr:city": "Berkeley", "addr:country": "US", "addr:housenumber": "1300", "addr:postcode": "94710", "addr:state": "CA", "addr:street": "10th Street", "amenity": "restaurant", "contact:instagram": "https://www.instagram.com/italyongilman/", "cuisine": "italian;barbecue", "name": "Italy on Gilman", "website": "https://www.italyongilman.com/"}}, {"type": "node", "id": 3637571028, "lat": 37.8656685, "lon": -122.2587045, "tags": {"addr:city": "Berkeley", "addr:housenumber": "2468", "addr:postcode": "94704", "addr:street": "Telegraph Avenue", "amenity": "restaurant", "contact:website": "http://places.singleplatform.com/sliver/menu?ref=openstreetmap", "cuisine": "pizza", "name": "Sliver Pizzeria", "outdoor_seating": "no", "phone": "(510) 356-4044", "smoking": "no", "takeaway": "yes", "website": "https://www.sliverpizzeria.com/pizza-telegraph/"}}, {"type": "node", "id": 3679166246, "lat": 37.8505318, "lon": -122.278806, "tags": {"addr:city": "Berkeley", "addr:country": "US", "addr:housenumber": "3136", "addr:postcode": "94702", "addr:state": "CA", "addr:street": "Sacramento Street", "amenity": "restaurant", "check_date": "2024-12-01", "cuisine": "indian", "diet:halal": "yes", "diet:vegetarian": "yes", "name": "House of Curries", "opening_hours": "Mo off; Tu-Su 11:00-10:00", "outdoor_seating": "yes", "phone": "+1 510-788-7577", "website": "https://houseofcurries.com/"}}, {"type": "node", "id": 3796357476, "lat": 37.8612006, "lon": -122.298815}, {"type": "node", "id": 3796357477, "lat": 37.861313, "lon": -122.2982574}, {"type": "node", "id": 3796357480, "lat": 37.861385, "lon": -122.298875}, {"type": "node", "id": 3796357482, "lat": 37.861498, "lon": -122.2983162}, {"type": "node", "id": 4121822391, "lat": 37.8678491, "lon": -122.2567962, "tags": {"amenity": "restaurant", "check_date": "2024-07-31", "diet:vegetarian": "yes", "name": "Dumpling Express"}}, {"type": "node", "id": 4121822399, "lat": 37.8686873, "lon": -122.2566747, "tags": {"amenity": "restaurant", "check_date": "2024-07-31", "cuisine": "chinese", "name": "Chengdu Style Restaurant", "opening_hours": "Mo-Su 11:00-21:30"}}, {"type": "node", "id": 4175474595, "lat": 37.8579721, "lon": -122.2532978, "tags": {"addr:city": "Berkeley", "addr:housenumber": "2914", "addr:state": "CA", "addr:street": "College Avenue", "amenity": "restaurant", "cuisine": "tacos", "name": "5 Tacos & Beers", "website": "https://www.5tacos.com/location/berkeley/"}}, {"type": "node", "id": 4175634189, "lat": 37.8562473, "lon": -122.252847, "tags": {"addr:city": "Berkeley", "addr:housenumber": "2995", "addr:postcode": "94705", "addr:street": "College Avenue", "amenity": "restaurant", "cuisine": "chinese", "diet:vegetarian": "yes", "name": "King Yen", "opening_hours": "Tu-Su 11:30-14:00, 16:30-20:00", "phone": "+1 510-845-1286", "website": "https://www.kingyenrestaurant.com/", "wheelchair": "yes"}}, {"type": "node", "id": 4193070048, "lat": 37.8915182, "lon": -122.2792767, "tags": {"addr:city": "Berkeley", "addr:country": "US", "addr:housenumber": "1823", "addr:postcode": "94707", "addr:state": "CA", "addr:street": "Solano Avenue", "alt_name": "Bopshop;Vons Chicken;Sojumo", "amenity": "restaurant", "cuisine": "korean", "indoor_seating": "yes", "name": "Bopshop/Vons Chicken/Sojumo", "opening_hours": "Mo-Su 11:00-20:30", "outdoor_seating": "no", "phone": "+1-510-559-9313", "website": "https://vonschickenberkeley.menu11.com/berkeley/order"}}, {"type": "node", "id": 4199755687, "lat": 37.8609257, "lon": -122.2898941, "tags": {"addr:housenumber": "1096", "addr:street": "Dwight Way", "amenity": "restaurant", "cuisine": "thai", "name": "Anchalee", "opening_hours": "Mo-Su 11:30-15:00, 16:00-21:00", "phone": "+1 510 848 4015", "website": "https://anchaleethai.com/"}}, {"type": "node", "id": 4201061920, "lat": 37.8495643, "lon": -122.2714701, "tags": {"addr:city": "Berkeley", "addr:country": "US", "addr:housenumber": "3250", "addr:state": "CA", "addr:street": "Adeline Street", "amenity": "restaurant", "check_date": "2025-02-25", "cuisine": "american;breakfast", "diet:vegetarian": "yes", "drink:beer": "yes", "name": "Vault Cafe", "opening_hours": "Mo 07:30-15:00; Tu-Su 07:30-16:00", "phone": "+1-510-595-9600", "website": "https://www.vaultcafes.com/", "website:menu": "https://ordervaultca.com/menu", "wheelchair": "yes"}}, {"type": "node", "id": 4218253001, "lat": 37.8683107, "lon": -122.2581173, "tags": {"addr:city": "Berkeley", "addr:housenumber": "2519F", "addr:postcode": "94704", "addr:state": "CA", "addr:street": "Durant Avenue", "amenity": "restaurant", "cuisine": "thai", "name": "Thai Basil", "opening_hours": "Mo-Th 11:00-00:00; Fr 11:00-02:00; Sa 11:00-01:00; Su 11:00-00:00", "outdoor_seating": "yes"}}, {"type": "node", "id": 4218262212, "lat": 37.8681342, "lon": -122.2582963, "tags": {"addr:city": "Berkeley", "addr:floor": "2", "addr:housenumber": "2517", "addr:postcode": "94704", "addr:state": "CA", "addr:street": "Durant Avenue", "amenity": "restaurant", "check_date": "2023-06-11", "cuisine": "mexican", "level": "1", "name": "Cafe Durant"}}, {"type": "node", "id": 4412682157, "lat": 37.8568082, "lon": -122.259442}, {"type": "node", "id": 4412682158, "lat": 37.856723, "lon": -122.2594414}, {"type": "node", "id": 4412682159, "lat": 37.8567632, "lon": -122.2590766}, {"type": "node", "id": 4412682160, "lat": 37.856849, "lon": -122.2590927}, {"type": "node", "id": 4578617633, "lat": 37.891542, "lon": -122.2788501, "tags": {"addr:city": "Berkeley", "addr:country": "US", "addr:housenumber": "1843", "addr:postcode": "94707", "addr:state": "CA", "addr:street": "Solano Avenue", "amenity": "restaurant", "cuisine": "greek", "indoor_seating": "yes", "name": "Troy", "opening_hours": "Mo-Su 11:00-20:00", "outdoor_seating": "no", "phone": "+1- 510-559-8769", "website": "https://troygreek.com/berkeley/", "wheelchair": "yes"}}, {"type": "node", "id": 4578653089, "lat": 37.8623831, "lon": -122.281361, "tags": {"addr:housenumber": "2448", "addr:street": "Sacramento Street", "amenity": "restaurant", "cuisine": "indian", "diet:vegan": "no", "diet:vegetarian": "yes", "name": "Breads of India", "note": "approximate location", "opening_hours": "Mo, We-Su 11:30-14:30, 17:30-21:30", "phone": "+1 510-848-7684", "website": "https://www.breadsofindia.com/", "wheelchair": "yes"}}, {"type": "node", "id": 4995235129, "lat": 37.8780858, "lon": -122.3011175, "tags": {"addr:country": "US", "addr:housenumber": "1328", "addr:postcode": "94710", "addr:state": "CA", "addr:street": "6th Street", "amenity": "restaurant", "contact:facebook": "https://www.facebook.com/picanteberkeley/", "contact:instagram": "https://www.instagram.com/picanteberkeley/", "cuisine": "mexican", "delivery": "no", "name": "Picante", "opening_hours": "Mo-Su 11:00-20:00", "outdoor_seating": "yes", "phone": "+15105253121", "smoking": "no", "takeaway": "yes", "website": "https://www.picanteberkeley.com/"}}, {"type": "node", "id": 5029409989, "lat": 37.8654693, "lon": -122.2672237, "tags": {"addr:city": "Berkeley", "addr:housenumber": "2417", "addr:postcode": "94704", "addr:state": "CA", "addr:street": "Shattuck Avenue", "amenity": "restaurant", "cuisine": "asian;barbecue", "internet_access": "no", "level": "0", "name": "Wiki Wiki Hawaiian BBQ", "opening_hours": "Mo-Sa 11:00-21:00", "outdoor_seating": "yes", "phone": "+1 510-548-3936", "takeaway": "yes", "website": "https://wikiwiki-hawaiian-bbq.business.site/"}}, {"type": "node", "id": 5072636672, "lat": 37.8639968, "lon": -122.2664371, "tags": {"addr:city": "Berkeley", "addr:housenumber": "2126", "addr:postcode": "94704", "addr:state": "CA", "addr:street": "Dwight Way", "amenity": "restaurant", "cuisine": "japanese;sushi", "diet:vegetarian": "no", "indoor_seating": "yes", "name": "Musashi", "opening_hours": "Tu-Sa 17:00-21:00", "outdoor_seating": "no", "phone": "+1-510-8432017", "website": "https://musashiofberkeley.com/"}}, {"type": "node", "id": 5081899956, "lat": 37.8683312, "lon": -122.314346, "tags": {"addr:city": "Berkeley", "addr:country": "US", "addr:housenumber": "200", "addr:postcode": "94710", "addr:state": "CA", "addr:street": "Marina Boulevard", "amenity": "restaurant", "contact:facebook": "https://www.facebook.com/berkeleyboathouse", "contact:instagram": "https://www.instagram.com/berkeleyboathouse/", "contact:twitter": "https://twitter.com/berkboathouse", "cuisine": "seafood;american", "email": "info@berkeleyboathouse.com", "name": "The Berkeley Boathouse", "opening_hours": "Mo-Fr 06:30-10:00,15:30-23:00, Sa-Su 06:30-13:00,15:30-23:00", "phone": "+1-510-665-7171", "website": "https://www.berkeleyboathouse.com/"}}, {"type": "node", "id": 5309768327, "lat": 37.8624349, "lon": -122.280938, "tags": {"addr:city": "Berkeley", "addr:housenumber": "2449", "addr:postcode": "94702", "addr:state": "CA", "addr:street": "Sacramento Street", "amenity": "restaurant", "cuisine": "indian", "delivery": "yes", "diet:vegan": "no", "diet:vegetarian": "yes", "name": "Mehak", "opening_hours": "Mo-Su 11:30-14:30, 17:00-21:30", "outdoor_seating": "no", "phone": "+1 510-841-6118", "takeaway": "yes", "website": "https://mehakindiancuisineberkeley.com/", "wheelchair": "yes"}}, {"type": "node", "id": 5324276553, "lat": 37.8728299, "lon": -122.2689226, "tags": {"addr:city": "Berkeley", "addr:country": "US", "addr:housenumber": "2050", "addr:postcode": "94704", "addr:state": "CA", "addr:street": "Berkeley Way", "amenity": "restaurant", "check_date": "2023-05-20", "cuisine": "vietnamese", "level": "0", "name": "84 Viet", "opening_hours:signed": "no", "website": "https://www.84-viet.com"}}, {"type": "node", "id": 5977520815, "lat": 37.8698988, "lon": -122.2875004, "tags": {"addr:city": "Berkeley", "addr:country": "US", "addr:housenumber": "1269", "addr:postcode": "94702", "addr:state": "CA", "addr:street": "University Avenue", "amenity": "restaurant", "contact:instagram": "pyeongchangtofu", "cuisine": "korean", "name": "Pyeong Chang Tofu", "phone": "(510) 548-9781", "website": "https://www.pctofu.com/"}}, {"type": "node", "id": 6179979446, "lat": 37.8509388, "lon": -122.2782411, "tags": {"addr:city": "Berkeley", "addr:country": "US", "addr:housenumber": "3121", "addr:postcode": "94702", "addr:state": "CA", "addr:street": "Sacramento Street", "amenity": "restaurant", "cuisine": "italian", "name": "Creekwood", "phone": "+1-510-647-8210", "website": "https://creekwoodrestaurant.com/"}}, {"type": "node", "id": 6179983848, "lat": 37.8581943, "lon": -122.2530395, "tags": {"addr:city": "Berkeley", "addr:housenumber": "2905", "addr:postcode": "94705", "addr:state": "CA", "addr:street": "College Avenue", "amenity": "restaurant", "cuisine": "italian", "name": "Italian Homemade Company", "opening_hours": "Mo-Su 11:00-21:30", "phone": "+1-510-649-1495", "website": "https://italianhomemade.com/delivery/berkeley"}}, {"type": "node", "id": 6444564501, "lat": 37.8680838, "lon": -122.258211, "tags": {"addr:city": "Berkeley", "addr:housenumber": "2517", "addr:postcode": "94704", "addr:state": "CA", "addr:street": "Durant Avenue", "amenity": "restaurant", "cuisine": "korean", "name": "Kimchi Garden", "website": "https://kimchigarden.business.site/"}}, {"type": "node", "id": 6448583485, "lat": 37.8656165, "lon": -122.2586933, "tags": {"addr:city": "Berkeley", "addr:housenumber": "2468-A", "addr:postcode": "94704", "addr:state": "CA", "addr:street": "Telegraph Avenue", "amenity": "restaurant", "cuisine": "waffle", "name": "Little Gem Belgian Waffles", "opening_hours": "Mo-Th 15:00-23:00; Fr,Sa 12:00-24:00; Su 12:00-23:00", "website": "http://www.littlegemwaffles.com/"}}, {"type": "node", "id": 6654037890, "lat": 37.8712823, "lon": -122.276673, "tags": {"addr:city": "Berkeley", "addr:country": "US", "addr:housenumber": "1725", "addr:postcode": "94703", "addr:state": "CA", "addr:street": "University Avenue", "amenity": "restaurant", "cuisine": "chinese", "diet:vegetarian": "yes", "name": "Long Life Vegi House", "opening_hours": "Mo-Su 11:30-15:30, 17:00-21:00; Tu off", "payment:cash": "yes", "payment:coins": "yes", "payment:credit_cards": "yes", "payment:debit_cards": "yes", "payment:mastercard": "yes", "payment:notes": "yes", "payment:visa": "yes", "phone": "+1 510-845-6072", "smoking": "no", "takeaway": "yes", "toilets": "yes", "website": "https://www.longlifevegihouse.com/", "wheelchair": "yes"}}, {"type": "node", "id": 6659190377, "lat": 37.8552114, "lon": -122.2923234, "tags": {"amenity": "restaurant", "name": "900 Grayson", "opening_hours": "Mo-Fr 08:00-10:45, 11:30-14:00; Sa 08:00-14:00", "phone": "(510) 704-9900", "website": "https://www.900grayson.com/"}}, {"type": "node", "id": 6668069469, "lat": 37.8516165, "lon": -122.289905, "tags": {"addr:housenumber": "933", "addr:street": "Ashby Avenue", "amenity": "restaurant", "cuisine": "korean", "name": "Spoon Korean Bistro", "opening_hours": "Mo-Su 10:00-21:00", "phone": "(510) 704-9555", "website": "https://www.spoonashby.com/"}}, {"type": "node", "id": 6727812391, "lat": 37.8655219, "lon": -122.2583932, "tags": {"addr:city": "Berkeley", "addr:housenumber": "2485", "addr:postcode": "94704", "addr:state": "CA", "addr:street": "Telegraph Avenue", "amenity": "restaurant", "cuisine": "poke", "name": "Poke Parlor", "phone": "+1-510-256-9685", "website": "http://pokeparlor.com/"}}, {"type": "node", "id": 6743278839, "lat": 37.8610169, "lon": -122.2893052, "tags": {"addr:city": "Berkeley", "addr:housenumber": "2501", "addr:postcode": "94702", "addr:state": "CA", "addr:street": "San Pablo Avenue", "amenity": "restaurant", "contact:facebook": "lephorestaurant.berkeley", "name": "Le Pho", "opening_hours": "Mo-Sa 11:30-20:30", "phone": "(510)280-5783", "website": "https://www.lephorestaurant.com/"}}, {"type": "node", "id": 6781568979, "lat": 37.8652637, "lon": -122.2672202, "tags": {"addr:city": "Berkeley", "addr:housenumber": "2429", "addr:postcode": "94704", "addr:state": "CA", "addr:street": "Shattuck Avenue", "amenity": "restaurant", "cuisine": "indian;nepali", "name": "4 Dreams Nepali Indian Cuisine", "website": "https://www.4dreamscuisine.com/"}}, {"type": "node", "id": 7100056547, "lat": 37.8684214, "lon": -122.2589657, "tags": {"addr:housenumber": "2309", "addr:street": "Telegraph Avenue", "amenity": "restaurant", "check_date": "2025-02-16", "contact:facebook": "alleykitchens", "contact:instagram": "alleykitchens", "contact:yelp": "https://www.yelp.com/biz/alleykitchens", "cuisine": "japanese;ramen", "email": "alleykitchens@gmail.com", "name": "Alley Kitchens", "name:ja": "\u6a6b\u4e01\u30ad\u30c3\u30c1\u30f3", "opening_hours": "Mo-Su 11:00-21:00", "opening_hours:url": "https://alleykitchens.com/", "phone": "+1 510 9061587", "takeaway": "yes", "website": "https://alleykitchens.com/", "website:menu": "https://order.snackpass.co/Alley-Kitchens-5e4d824b4cb6a000a0dc925c/"}}, {"type": "node", "id": 7125420448, "lat": 37.8703804, "lon": -122.2834461, "tags": {"addr:city": "Berkeley", "addr:housenumber": "1459", "addr:postcode": "94702", "addr:state": "CA", "addr:street": "University Avenue", "amenity": "restaurant", "capacity": "40", "cuisine": "thai", "delivery": "no", "name": "Bangkok Thai Cuisine", "opening_hours": "Mo-Sa 17:00-21:00, Su 17:00-21:00, Mo-Sa 11:30-15:00", "outdoor_seating": "no", "phone": "+1-510-848-6483", "smoking": "no", "takeaway": "yes", "website": "https://www.bangkokthaicuisine.com/"}}, {"type": "node", "id": 7176398158, "lat": 37.8795285, "lon": -122.2977033, "tags": {"addr:city": "Berkeley", "addr:country": "US", "addr:housenumber": "1313", "addr:postcode": "94710", "addr:state": "CA", "addr:street": "Ninth Street", "addr:unit": "120", "amenity": "restaurant", "cuisine": "thai", "name": "Funky Elephant", "phone": "+1-510-356-4855", "website": "https://www.funkyelephantthai.com/"}}, {"type": "node", "id": 7471934966, "lat": 37.8651962, "lon": -122.2678295, "tags": {"addr:city": "Berkeley", "addr:housenumber": "2430", "addr:postcode": "94704", "addr:state": "CA", "addr:street": "Shattuck Avenue", "amenity": "restaurant", "check_date": "2024-12-09", "check_date:opening_hours": "2024-12-09", "cuisine": "chinese", "diet:vegetarian": "yes", "drink:beer": "yes", "indoor_seating": "yes", "name": "Noodles Fresh", "opening_hours": "Mo-Su 11:00-21:00", "phone": "+1-510-906-8800", "website": "https://noodlesfresh.com/", "wheelchair": "yes"}}, {"type": "node", "id": 7807327089, "lat": 37.8716034, "lon": -122.271392, "tags": {"addr:city": "Berkeley", "addr:country": "US", "addr:housenumber": "1966", "addr:postcode": "94704", "addr:state": "CA", "addr:street": "University Avenue", "amenity": "restaurant", "cuisine": "salad", "name": "Anja\u2019s", "opening_hours": "Tu-Sa 08:30-15:00", "phone": "+1-510-6478251", "website": "https://anjaskitchen.com"}}, {"type": "node", "id": 7863174321, "lat": 37.8562886, "lon": -122.2798921, "tags": {"addr:city": "Berkeley", "addr:housenumber": "2836", "addr:postcode": "94703", "addr:state": "CA", "addr:street": "Sacramento Street", "amenity": "restaurant", "cuisine": "burger;chicken;sandwich;pizza;barbecue", "name": "The Bootstrapper", "opening_hours": "Wednesday, 11:30\u202fAM-8\u202fPM", "phone": "+15109810486", "website": "https://m.facebook.com/TheBootstrapper/"}}, {"type": "node", "id": 7900877828, "lat": 37.8776371, "lon": -122.295171, "tags": {"addr:city": "Berkeley", "addr:country": "US", "addr:housenumber": "1428", "addr:postcode": "94702", "addr:state": "CA", "addr:street": "San Pablo Avenue", "amenity": "restaurant", "cuisine": "vietnamese", "name": "Super pho", "opening_hours": "Mo, Tu, Th-Su 10:00-19:30", "phone": "(510) 559-7759", "website": "https://www.yelp.com/biz/super-super-restaurant-berkeley"}}, {"type": "node", "id": 7914204207, "lat": 37.8708136, "lon": -122.2771732, "tags": {"amenity": "restaurant", "cuisine": "pizza", "name": "West coast pizza"}}, {"type": "node", "id": 7926192170, "lat": 37.8567527, "lon": -122.25994, "tags": {"amenity": "restaurant", "check_date:opening_hours": "2024-10-05", "cuisine": "taqueria", "name": "Aliberto's Jr. Mexican Food", "opening_hours:signed": "no", "takeaway": "yes"}}, {"type": "node", "id": 7926192173, "lat": 37.8633508, "lon": -122.258962, "tags": {"addr:city": "Berkeley", "addr:housenumber": "2598", "addr:street": "Telegraph Avenue", "amenity": "restaurant", "cuisine": "nepalese;indian", "name": "Mount Everest", "opening_hours": "Mo, Tu, Th-Su 11:00-15:00; Mo, Tu, Th-Su 17:00-21:30", "phone": "510-843-3951", "website": "https://www.mteverestberkeley.com/"}}, {"type": "node", "id": 7926243229, "lat": 37.8644085, "lon": -122.258356, "tags": {"addr:city": "Berkeley", "addr:housenumber": "2533", "addr:street": "Telegraph Avenue", "amenity": "restaurant", "cuisine": "vietnamese", "name": "Pho k&k", "phone": "(510) 666-9966", "website": "https://www.facebook.com/pages/Pho-K-K/114037361961083"}}, {"type": "node", "id": 7926249644, "lat": 37.8640641, "lon": -122.258387, "tags": {"amenity": "restaurant", "name": "Pasta bene", "phone": "510-845-2363", "website": "http://places.singleplatform.com/pasta-bene-2/menu?ref=openstreetmap"}}, {"type": "node", "id": 7926250588, "lat": 37.8566263, "lon": -122.2528847, "tags": {"addr:city": "Berkeley", "addr:housenumber": "2977", "addr:postcode": "94705", "addr:state": "CA", "addr:street": "College Avenue", "amenity": "restaurant", "cuisine": "sushi", "name": "Manpuku", "opening_hours": "Mo-Sa 11:30-14:00, 16:00-20:00", "phone": "(510) 848-2536", "website": "https://manpukuorder.com"}}, {"type": "node", "id": 7939602892, "lat": 37.8680194, "lon": -122.2585236, "tags": {"addr:housenumber": "2511", "addr:street": "Durant Avenue", "amenity": "restaurant", "check_date": "2025-02-16", "cuisine": "falafel", "name": "D'yar"}}, {"type": "node", "id": 7948223143, "lat": 37.8578561, "lon": -122.253006, "tags": {"amenity": "restaurant", "cuisine": "salad;sandwich;juice", "diet:keto": "yes", "diet:vegetarian": "yes", "name": "Organic Greens", "opening_hours": "Mo-Su 10:00-18:00", "outdoor_seating": "yes", "phone": "+1 510-704-0554"}}, {"type": "node", "id": 7988427212, "lat": 37.8672777, "lon": -122.2590013, "tags": {"addr:city": "Berkeley", "addr:housenumber": "2380", "addr:state": "CA", "addr:street": "Telegraph Avenue", "amenity": "restaurant", "check_date": "2023-06-11", "cuisine": "pizza;indian", "name": "Curry Pizza House", "outdoor_seating": "no", "website": "https://currypizzahouse.com/"}}, {"type": "node", "id": 8023119034, "lat": 37.8680732, "lon": -122.2591712, "tags": {"addr:housenumber": "2334", "addr:street": "Telegraph Avenue", "amenity": "restaurant", "check_date": "2023-06-11", "name": "Fresh roll"}}, {"type": "node", "id": 8023119035, "lat": 37.8666841, "lon": -122.2588869, "tags": {"addr:housenumber": "2404", "addr:street": "Telegraph Avenue", "amenity": "restaurant", "check_date": "2023-06-11", "name": "Gordito Amigos"}}, {"type": "node", "id": 8023119986, "lat": 37.8668117, "lon": -122.2589266, "tags": {"addr:housenumber": "2400", "addr:street": "Telegraph Avenue", "amenity": "restaurant", "check_date": "2023-06-11", "name": "Delhi Diner"}}, {"type": "node", "id": 8026289397, "lat": 37.8531372, "lon": -122.2598306, "tags": {"addr:housenumber": "3115", "addr:postcode": "94705", "addr:street": "Telegraph Avenue", "amenity": "restaurant", "cuisine": "american", "name": "Smokehouse", "opening_hours": "off, Mo-Th 10:30-23:00, Fr,Sa 10:30-24:00, Su 10:30-22:00", "phone": "+15108453640", "website": "http://facebook.com/TheSmokehouseCA"}}, {"type": "node", "id": 8048636012, "lat": 37.8556272, "lon": -122.2894185, "tags": {"amenity": "restaurant", "contact:instagram": "cali.alley", "name": "Cali alley", "opening_hours": "Mo-Sa 12:00-19:00", "website": "https://calialley.com/"}}, {"type": "node", "id": 8066420292, "lat": 37.8543525, "lon": -122.2597362, "tags": {"addr:city": "Berkeley", "addr:housenumber": "3075", "addr:state": "CA", "addr:street": "Telegraph Avenue", "amenity": "restaurant", "cuisine": "sushi", "name": "Hashtag Poki", "opening_hours": "Mo-Fr 11:30-20:00", "phone": "+1-510-356-4376", "website": "https://www.hashtagpoki.com"}}, {"type": "node", "id": 8072197934, "lat": 37.866412, "lon": -122.2589, "tags": {"addr:housenumber": "2526", "addr:street": "Telegraph Avenue", "amenity": "restaurant", "check_date": "2023-06-11", "cuisine": "noodle;chinese", "name": "Noodle Dynasty"}}, {"type": "node", "id": 8072231016, "lat": 37.8667533, "lon": -122.259203, "tags": {"addr:city": "Berkeley", "addr:housenumber": "2488", "addr:street": "Channing Way", "amenity": "restaurant", "cuisine": "chinese", "name": "Chinese express", "website": "https://www.yelp.com/biz/chinese-express-berkeley"}}, {"type": "node", "id": 8113127462, "lat": 37.8571211, "lon": -122.291775, "tags": {"addr:city": "Berkeley", "addr:housenumber": "2701", "addr:street": "Eighth Street", "amenity": "restaurant", "cuisine": "sandwich;california;espresso;mediterranean", "indoor_seating": "no", "name": "Standard Fare", "opening_hours": "Tu-Sa 08:30-14:30; We-Sa 16:30-21:00", "outdoor_seating": "yes", "website": "https://www.standardfareberkeley.com/", "wheelchair": "yes"}}, {"type": "node", "id": 8132653386, "lat": 37.8674269, "lon": -122.291303, "tags": {"addr:city": "Berkeley", "addr:country": "US", "addr:housenumber": "2121", "addr:postcode": "94702", "addr:state": "CA", "addr:street": "San Pablo Avenue", "amenity": "restaurant", "cuisine": "barbecue", "name": "Heads and Tails BBQ", "website": "https://headsandtailsbarbecue.com/"}}, {"type": "node", "id": 8143812459, "lat": 37.8689895, "lon": -122.2916678, "tags": {"amenity": "restaurant", "cuisine": "mexican", "name": "Califas Green"}}, {"type": "node", "id": 8172061704, "lat": 37.8624362, "lon": -122.29727, "tags": {"amenity": "restaurant", "cuisine": "pizza", "name": "Passione", "website": "https://passionepizza.dine.online/locations/788769?fulfillment=pickup"}}, {"type": "node", "id": 8181411077, "lat": 37.8686298, "lon": -122.2922432, "tags": {"amenity": "restaurant", "cuisine": "tapas", "name": "La Marcha"}}, {"type": "node", "id": 8343485557, "lat": 37.8528192, "lon": -122.293528, "tags": {"addr:city": "Berkeley", "addr:housenumber": "800", "addr:postcode": "94710", "addr:state": "CA", "addr:street": "Heinz Avenue", "addr:unit": "19", "amenity": "restaurant", "cuisine": "thai", "name": "Bangkok by the Bay", "website": "http://www.bangkokbythebay.com/"}}, {"type": "node", "id": 8618162595, "lat": 37.8694866, "lon": -122.3006924, "tags": {"amenity": "restaurant", "name": "Iyasare", "website": "https://iyasare-berkeley.com/"}}, {"type": "node", "id": 8868960441, "lat": 37.8794771, "lon": -122.301587, "tags": {"addr:country": "US", "addr:housenumber": "1290", "addr:state": "CA", "addr:street": "Sixth Street", "amenity": "restaurant", "contact:facebook": "https://www.facebook.com/LamaBeansCafe", "cuisine": "international", "name": "Lama Beans", "phone": "(510) 528-3435", "website": "https://www.yelp.com/biz/lama-beans-cafe-berkeley"}}, {"type": "node", "id": 8891352812, "lat": 37.8811298, "lon": -122.2958194, "tags": {"addr:city": "Berkeley", "addr:country": "US", "addr:housenumber": "1233", "addr:state": "CA", "addr:street": "San Pablo Avenue", "addr:unit": "94706", "amenity": "restaurant", "cuisine": "thai", "name": "Sistory Thai Kitchen", "phone": "+1-510-705-1635", "website": "https://www.sistorythaikitchen.com/"}}, {"type": "node", "id": 8899624213, "lat": 37.8804191, "lon": -122.295583, "tags": {"addr:city": "Berkeley", "addr:country": "US", "addr:housenumber": "1301", "addr:state": "CA", "addr:street": "San Pablo Avenue", "amenity": "restaurant", "cuisine": "vietnamese", "indoor_seating": "yes", "name": "Ph\u1edf le", "opening_hours": "Tu-Sa 11:00-15:00, 17:00-21:00", "outdoor_seating": "no", "phone": "5105588367", "website": "https://www.pholeberkeley.com/", "wheelchair": "yes"}}, {"type": "node", "id": 9008685685, "lat": 37.8912888, "lon": -122.283386, "tags": {"addr:city": "Berkeley", "addr:country": "US", "addr:housenumber": "1647", "addr:state": "CA", "addr:street": "Solano Avenue", "amenity": "restaurant", "cuisine": "japanese;sushi;ramen", "indoor_seating": "yes", "name": "Mainichi", "opening_hours": "Tu-Su 11:45-21:30", "outdoor_seating": "no", "phone": "(510) 280-5037", "website": "https://mainichisushi.menu11.com", "wheelchair": "yes"}}, {"type": "node", "id": 9064776280, "lat": 37.8681462, "lon": -122.2580196, "tags": {"addr:housenumber": "2521", "addr:street": "Durant Avenue", "addr:unit": "B", "amenity": "restaurant", "contact:facebook": "officialtacoandcompany", "contact:instagram": "tacoandcompany", "cuisine": "mexican", "name": "Taco & Co.", "outdoor_seating": "yes", "takeaway": "yes", "wheelchair": "yes"}}, {"type": "node", "id": 9429125323, "lat": 37.8536369, "lon": -122.278851, "tags": {"addr:city": "Berkeley", "addr:country": "US", "addr:housenumber": "2987", "addr:postcode": "94702", "addr:state": "CA", "addr:street": "Sacramento Street", "amenity": "restaurant", "cuisine": "ethiopian", "name": "Kaffa Ethiopian Cuisine", "phone": "(510) 677-5822", "website": "https://kaffa-ethiopian-cuisine.cafe-inspector.com/"}}, {"type": "node", "id": 9572013605, "lat": 37.8680505, "lon": -122.2598384, "tags": {"amenity": "restaurant", "check_date": "2023-06-11", "contact:facebook": "pokebar", "contact:instagram": "pokebar", "cuisine": "poke;asian", "name": "Pok\u00e9 Bar", "phone": "+1 510 2805681", "takeaway": "yes", "website": "https://www.ilovepokebar.com/locations/berkeley"}}, {"type": "node", "id": 9572013608, "lat": 37.8679631, "lon": -122.2598991, "tags": {"addr:city": "Berkeley", "addr:housenumber": "2431", "addr:postcode": "94704", "addr:state": "CA", "addr:street": "Durant Avenue", "addr:unit": "B", "amenity": "restaurant", "check_date": "2023-06-11", "cuisine": "noodle", "name": "Noody"}}, {"type": "node", "id": 9572013610, "lat": 37.8678213, "lon": -122.2599014, "tags": {"addr:city": "Berkeley", "addr:housenumber": "2431", "addr:state": "CA", "addr:street": "Durant Avenue", "addr:unit": "A", "amenity": "restaurant", "check_date": "2022-03-04", "cuisine": "korean", "name": "KoStop", "opening_hours": "Mo-Su 11:30-21:00"}}, {"type": "node", "id": 9574578732, "lat": 37.8682106, "lon": -122.2581108, "tags": {"addr:city": "Berkeley", "addr:housenumber": "2519", "addr:state": "CA", "addr:street": "Durant Avenue", "addr:unit": "C", "amenity": "restaurant", "cuisine": "mediterranean", "name": "Best California Gyros", "outdoor_seating": "yes"}}, {"type": "node", "id": 9574578734, "lat": 37.8683145, "lon": -122.2580739, "tags": {"amenity": "restaurant", "cuisine": "korean", "name": "Steve's Korean B.B.Q.", "outdoor_seating": "yes"}}, {"type": "node", "id": 9574578735, "lat": 37.8682969, "lon": -122.2580578, "tags": {"addr:city": "Berkeley", "addr:housenumber": "2521", "addr:state": "CA", "addr:street": "Durant Avenue", "addr:unit": "E", "amenity": "restaurant", "cuisine": "indian", "name": "Punjabi Dhaba Indian Eatery", "outdoor_seating": "yes"}}, {"type": "node", "id": 9574578736, "lat": 37.8682548, "lon": -122.258043, "tags": {"addr:city": "Berkeley", "addr:housenumber": "2521", "addr:state": "CA", "addr:street": "Durant Avenue", "addr:unit": "D", "amenity": "restaurant", "cuisine": "ramen", "name": "Bears Ramen House", "outdoor_seating": "yes"}}, {"type": "node", "id": 9574578737, "lat": 37.8682146, "lon": -122.2580343, "tags": {"addr:city": "Berkeley", "addr:housenumber": "2521", "addr:state": "CA", "addr:street": "Durant Avenue", "addr:unit": "C", "amenity": "restaurant", "cuisine": "sushi", "name": "Katsumi Sushi", "outdoor_seating": "yes"}}, {"type": "node", "id": 9645947033, "lat": 37.8659409, "lon": -122.3058525}, {"type": "node", "id": 9645947034, "lat": 37.8659419, "lon": -122.3058517}, {"type": "node", "id": 9669227539, "lat": 37.8682107, "lon": -122.2921393, "tags": {"addr:city": "Berkeley", "addr:housenumber": "2056", "addr:state": "CA", "addr:street": "San Pablo Avenue", "amenity": "restaurant", "cuisine": "mexican;venezuelan;mezcal", "name": "El Patio", "phone": "+1-510-548-2222", "website": "https://elpatio510.com"}}, {"type": "node", "id": 9704377124, "lat": 37.8699287, "lon": -122.2844137, "tags": {"addr:housenumber": "1398", "addr:street": "University Avenue", "amenity": "restaurant", "cuisine": "indian", "level": "0", "name": "Noor Indian Fusion Kitchen", "website": "https://noorfusionkitchen.com/"}}, {"type": "node", "id": 9704419285, "lat": 37.8708414, "lon": -122.2805343, "tags": {"amenity": "restaurant", "name": "Himalayan Flavors", "phone": "5107040174"}}, {"type": "node", "id": 9785959018, "lat": 37.8661636, "lon": -122.2914519, "tags": {"amenity": "restaurant", "cuisine": "mexican", "name": "Gallego's"}}, {"type": "node", "id": 10104531860, "lat": 37.8622402, "lon": -122.2815502, "tags": {"amenity": "restaurant", "cuisine": "thai", "name": "Nana Tha\u00ef bistro", "phone": "5109731883"}}, {"type": "node", "id": 10177227608, "lat": 37.870391, "lon": -122.3005135, "tags": {"addr:housenumber": "1795", "addr:postcode": "94710", "addr:street": "Fourth Street", "amenity": "restaurant", "cuisine": "asian", "name": "Dumpling time", "phone": "5109840306", "website": "https://www.dumplingtime.com/berkeley"}}, {"type": "node", "id": 10179041977, "lat": 37.864906, "lon": -122.258797, "tags": {"amenity": "restaurant", "cuisine": "ramen", "name": "Bansho Ramen", "opening_hours": "Tu-Su 11:30-21:00"}}, {"type": "node", "id": 10205094244, "lat": 37.8755488, "lon": -122.2601164, "tags": {"addr:city": "Berkeley", "addr:housenumber": "1841", "addr:postcode": "94709", "addr:state": "CA", "addr:street": "Euclid Avenue", "amenity": "restaurant", "cuisine": "mexican", "name": "El Talpense Mexican", "opening_hours": "Mo-Sa 11:00-22:00", "phone": "+15105491460", "website": "https://order.snackpass.co/El-Talpense-5fca6d4a36379700b6ecc749"}}, {"type": "node", "id": 10592521001, "lat": 37.8646674, "lon": -122.2587158, "tags": {"amenity": "restaurant", "cuisine": "thai", "name": "Racha Cafe"}}, {"type": "node", "id": 10769891609, "lat": 37.8713192, "lon": -122.2680936, "tags": {"addr:city": "Berkeley", "addr:housenumber": "2039", "addr:postcode": "94704", "addr:state": "CA", "addr:street": "Shattuck Avenue", "amenity": "restaurant", "contact:instagram": "pizzeriadalaura", "cuisine": "pizza", "indoor_seating": "yes", "name": "Pizzeria Da Laura", "website": "https://www.pizzeriadalaura.com/"}}, {"type": "node", "id": 10866297164, "lat": 37.8659309, "lon": -122.290854, "tags": {"addr:housenumber": "2215", "addr:street": "San Pablo Avenue", "amenity": "restaurant", "check_date": "2025-03-25", "cuisine": "sushi", "indoor_seating": "yes", "name": "Daruma Sushi", "opening_hours": "Mo-We 17:00-19:00; Th-Su 11:00-14:00,17:00-21:00", "outdoor_seating": "no", "phone": "+1 510-529-1643", "wheelchair": "yes"}}, {"type": "node", "id": 10876095871, "lat": 37.8557672, "lon": -122.2664473, "tags": {"addr:city": "Berkeley", "addr:housenumber": "2929", "addr:state": "CA", "addr:street": "Shattuck Avenue", "amenity": "restaurant", "contact:instagram": "dessertcafe_berkeley", "cuisine": "dessert;korean;donut", "name": "Dessert Cafe", "website:menu": "https://order.snackpass.co/Dessert-Cafe-(Berkeley)-63d0187f78a9083ef22ccce0"}}, {"type": "node", "id": 10969667015, "lat": 37.868039, "lon": -122.2583269, "tags": {"addr:floor": "1", "addr:housenumber": "2517", "addr:street": "Durant Avenue", "addr:unit": "A", "amenity": "restaurant", "check_date": "2023-06-11", "cuisine": "chinese", "level": "0", "name": "Dumpling Kitchen"}}, {"type": "node", "id": 10974904094, "lat": 37.8717833, "lon": -122.269987, "tags": {"addr:city": "Berkeley", "addr:housenumber": "2026", "addr:postcode": "94704", "addr:state": "CA", "addr:street": "University Avenue", "amenity": "restaurant", "cuisine": "fried_chicken;burger;american", "name": "Cal's Fried Chicken & Burgers", "website": "https://calsberkeley.com"}}, {"type": "node", "id": 11359640472, "lat": 37.8724692, "lon": -122.2682248, "tags": {"addr:city": "Berkeley", "addr:housenumber": "1987", "addr:postcode": "94704", "addr:state": "CA", "addr:street": "Shattuck Avenue", "amenity": "restaurant", "check_date": "2025-03-19", "cuisine": "japanese", "indoor_seating": "yes", "name": "Sizzling Lunch", "outdoor_seating": "no", "phone": "(510) 750-1943", "website": "https://www.sizzlinglunch.com/"}}, {"type": "node", "id": 11495013155, "lat": 37.8643819, "lon": -122.3135354, "tags": {"amenity": "restaurant", "cuisine": "seafood", "name": "Marina Seafood Dockside Patio", "note": "opened Jan 2024 in new structure here", "opening_hours": "Mo off; Tu-Su 11:30-14:00,16:00-20:00", "outdoor_seating": "yes", "website": "https://www.marinadocksidepatio.com/"}}, {"type": "node", "id": 11883169854, "lat": 37.8785934, "lon": -122.2688748, "tags": {"amenity": "restaurant", "cuisine": "thai", "name": "Farmhouse Kitchen", "website": "https://farmhousethai.com/berkeley-1"}}, {"type": "node", "id": 11884655669, "lat": 37.8795538, "lon": -122.295247, "tags": {"addr:postcode": "94702", "amenity": "restaurant", "cuisine": "american;mexican", "name": "Nuevo Sol", "opening_hours": "Mo, Th 09:00-14:00; Fr-Su 08:30-14:30", "phone": "5105294157", "website": "https://www.nuevosolberkeley.com/"}}, {"type": "node", "id": 12035126939, "lat": 37.8706743, "lon": -122.2684388, "tags": {"addr:city": "Berkeley", "addr:housenumber": "2116", "addr:postcode": "94704", "addr:street": "Shattuck Avenue", "amenity": "restaurant", "check_date": "2025-04-04", "cuisine": "chinese", "indoor_seating": "yes", "level": "0", "name": "Yin Ji Chang Fen", "name:zh": "\u9280\u8a18\u8178\u7c89\u5e97", "opening_hours": "Mo-Su 10:30-20:30", "outdoor_seating": "no", "phone": "+15105702115", "smoking": "no", "takeaway": "yes", "website": "https://www.yinjichangfenusa.com/", "wheelchair": "yes"}}, {"type": "node", "id": 12113186927, "lat": 37.8758284, "lon": -122.2601289, "tags": {"amenity": "restaurant", "name": "Ali baba"}}, {"type": "node", "id": 12150865501, "lat": 37.8807735, "lon": -122.301481, "tags": {"addr:housenumber": "1225", "addr:postcode": "94710", "addr:street": "Sixth Street", "amenity": "restaurant", "cuisine": "bagel", "name": "Boichik Bagels", "opening_hours": "Mo-Su 07:30-13:00", "outdoor_seating": "no", "website": "https://boichikbagels.com/"}}, {"type": "node", "id": 12152802628, "lat": 37.8707265, "lon": -122.268443, "tags": {"addr:housenumber": "2114", "addr:street": "Shattuck Avenue", "amenity": "restaurant", "check_date": "2025-03-19", "cuisine": "thai", "level": "0", "name": "Katak", "opening_hours": "Mo-Th 11:00-20:30; Fr 11:00-21:30; Sa-Su 12:00-21:30", "phone": "+1 628-358-8104", "website": "https://katakchickenrice.com", "wheelchair": "yes"}}, {"type": "node", "id": 12156690141, "lat": 37.8700627, "lon": -122.2691676}, {"type": "node", "id": 12156690142, "lat": 37.8698387, "lon": -122.2691216}, {"type": "node", "id": 12156690143, "lat": 37.8698634, "lon": -122.2689282}, {"type": "node", "id": 12156690144, "lat": 37.8700552, "lon": -122.2691661}, {"type": "node", "id": 12408499744, "lat": 37.8652828, "lon": -122.2678442, "tags": {"addr:city": "Berkeley", "addr:housenumber": "2420", "addr:state": "CA", "addr:street": "Shattuck Avenue", "amenity": "restaurant", "check_date": "2025-04-12", "cuisine": "pizza", "name": "North Beach Pizza", "website": "https://www.northbeachpizzaberkeley.com/"}}, {"type": "node", "id": 12537248695, "lat": 37.8703401, "lon": -122.2691639, "tags": {"addr:city": "Berkeley", "addr:housenumber": "2055", "addr:state": "CA", "addr:street": "Center Street", "amenity": "restaurant", "name": "Delirama Jr.", "note": "located inside of Olfactory Brewing - Berkeley Taproom", "website": "https://www.pyrospastrami.com/"}}, {"type": "node", "id": 12579408074, "lat": 37.8510598, "lon": -122.2526359, "tags": {"amenity": "restaurant", "check_date": "2025-02-11", "cuisine": "pizza", "name": "Foccaceria"}}, {"type": "node", "id": 12588823005, "lat": 37.8564444, "lon": -122.2528699, "tags": {"addr:city": "Berkeley", "addr:housenumber": "2985", "addr:postcode": "94705", "addr:state": "CA", "addr:street": "College Avenue", "amenity": "restaurant", "check_date": "2025-03-05", "cuisine": "pizza", "email": "info@stateflourpizza.com", "name": "State Flour Pizza Company", "opening_hours": "Tu-Sa 12:00-15:00, 17:00-21:00", "website": "https://stateflourpizza.com/"}}, {"type": "node", "id": 12591015087, "lat": 37.8518382, "lon": -122.2863729, "tags": {"amenity": "restaurant", "check_date": "2025-02-15", "cuisine": "thai", "name": "Chai Thai Noodles"}}, {"type": "node", "id": 12639863206, "lat": 37.8563387, "lon": -122.2528599, "tags": {"amenity": "restaurant", "check_date": "2025-03-05", "name": "Kaokao Grill"}}, {"type": "node", "id": 12743683913, "lat": 37.8606383, "lon": -122.2896738, "tags": {"addr:city": "Berkeley", "addr:housenumber": "2512", "addr:postcode": "94702", "addr:state": "CA", "addr:street": "San Pablo Avenue", "amenity": "restaurant", "cuisine": "nepali", "name": "Tipsy Yeti Restaurant & Bar", "website": "https://tipsyeti.com/"}}, {"type": "node", "id": 12749076501, "lat": 37.8720156, "lon": -122.2681498, "tags": {"addr:housenumber": "2100", "addr:postcode": "94704", "addr:street": "University Avenue", "amenity": "restaurant", "name": "Kura Revolving Sushi"}}, {"type": "node", "id": 12793672053, "lat": 37.8700235, "lon": -122.2926755, "tags": {"addr:city": "Berkeley", "addr:housenumber": "1918", "addr:postcode": "94710", "addr:state": "CA", "addr:street": "San Pablo Avenue", "amenity": "restaurant", "cuisine": "indian;pakistani", "diet:vegan": "yes", "name": "Vegan N Chicken 1 Indian and Pakistani Food"}}, {"type": "node", "id": 12798623813, "lat": 37.8487272, "lon": -122.2707195, "tags": {"addr:city": "Berkeley", "addr:housenumber": "1818", "addr:postcode": "94703", "addr:state": "CA", "addr:street": "Alcatraz Avenue", "amenity": "restaurant", "cuisine": "chinese", "name": "Chen's Garden"}}, {"type": "node", "id": 12803384088, "lat": 37.8812445, "lon": -122.2886614, "tags": {"addr:city": "Berkeley", "addr:housenumber": "1329", "addr:postcode": "94706", "addr:state": "CA", "addr:street": "Gilman Street", "amenity": "restaurant", "cuisine": "pizza", "name": "Thee One Four"}}, {"type": "way", "id": 28406237, "nodes": [312032407, 312032408, 312032409, 312032410, 312032411, 9645947033, 9645947034, 312032412, 312032413, 312032416, 312032407], "tags": {"addr:city": "Berkeley", "addr:country": "US", "addr:housenumber": "598", "addr:state": "CA", "addr:street": "University Avenue", "amenity": "restaurant", "building": "yes", "cuisine": "burger;sandwich;ice_cream", "drink:coffee": "served", "drink:juice": "served", "drive_in": "no", "microbrewery": "no", "name": "Seabreeze", "opening_hours": "Mo-Su 09:00-19:00", "outdoor_seating": "yes", "phone": "+15104868119", "takeaway": "yes", "wheelchair": "yes"}}, {"type": "way", "id": 43160294, "nodes": [540712999, 540713001, 540713003, 540713007, 540712999], "tags": {"addr:city": "Berkeley", "addr:housenumber": "2235;2237", "addr:street": "Milvia Street", "amenity": "restaurant", "building": "yes", "cuisine": "sushi", "name": "Sushinista"}}, {"type": "way", "id": 154653054, "nodes": [1671543305, 1671543268, 1671543293, 1671543276, 1671543305], "tags": {"addr:city": "Berkeley", "addr:country": "US", "addr:housenumber": "1255", "addr:state": "CA", "addr:street": "University Avenue", "amenity": "restaurant", "building": "yes", "cuisine": "mexican", "drive_in": "no", "microbrewery": "no", "name": "La Mission", "outdoor_seating": "yes", "phone": "+1 510-845-5898", "smoking": "no", "takeaway": "yes", "website": "https://www.doordash.com/store/la-mission-berkeley-62284/", "wheelchair": "yes", "wheelchair:description": "Has its own parking. Steps at the front entrance, but the back entrance is flat (the push door can be annoying though. Interior is just wide enough when not crowded, sort of awkward when it is. Cashier's counter a bit high."}}, {"type": "way", "id": 264221297, "nodes": [12156690141, 12156690144, 12156690142, 12156690143, 402240443, 2698950868, 12156690141], "tags": {"addr:city": "Berkeley", "addr:housenumber": "2068", "addr:postcode": "94704", "addr:street": "Center Street", "amenity": "restaurant", "building": "retail", "building:levels": "1", "cuisine": "american", "diet:vegetarian": "yes", "name": "Eureka!", "opening_hours": "Su-Th 11:00-24:00, Fr,Sa 11:00-01:00", "website": "https://eurekarestaurantgroup.com"}}, {"type": "way", "id": 317092789, "nodes": [3233169152, 3233169149, 3233169148, 3233169154, 3233169160, 3233170361, 3233169156, 3233169155, 3233169152], "tags": {"addr:country": "US", "addr:housenumber": "3212", "addr:state": "CA", "addr:street": "Adeline Street", "amenity": "restaurant", "building": "yes", "check_date": "2023-02-07", "cuisine": "ethiopian", "name": "Lemat"}}, {"type": "way", "id": 376181029, "nodes": [3796357482, 3796357480, 3796357476, 3796357477, 3796357482], "tags": {"addr:city": "Berkeley", "addr:housenumber": "2390", "addr:postcode": "94710", "addr:state": "CA", "addr:street": "Fourth Street", "amenity": "restaurant", "building": "yes", "cuisine": "indian", "drive_in": "no", "name": "Vik's Chaat", "opening_hours": "Fr-Su 11:00-19:30; Mo-Th 11:00-14:30, 05:00-19:30", "phone": "+15106444432", "website": "https://vikschaat.com/"}}, {"type": "way", "id": 443718719, "nodes": [4412682157, 4412682158, 4412682159, 4412682160, 4412682157], "tags": {"addr:city": "Berkeley", "addr:housenumber": "2955", "addr:postcode": "94705", "addr:state": "CA", "addr:street": "Telegraph Avenue", "amenity": "restaurant", "building": "yes", "check_date:opening_hours": "2023-08-16", "cuisine": "ethiopian", "diet:gluten_free": "yes", "diet:vegetarian": "yes", "name": "Ethiopia Restaurant", "opening_hours": "Mo-Su 11:30-21:00", "phone": "5108431332", "smoking": "no", "website": "http://orderethiopiarestaurant.com"}}, {"type": "way", "id": 1237590071, "nodes": [2862779920, 2862779921, 2862779924, 2862779925, 2862779914, 2862779915, 2862779916, 2862779917, 2862779918, 2862779919, 2862779920], "tags": {"addr:city": "Berkeley", "addr:country": "US", "addr:housenumber": "235", "addr:postcode": "94109", "addr:state": "CA", "addr:street": "University Avenue", "amenity": "restaurant", "building:part": "yes", "cuisine": "japanese", "name": "Hana Japan", "opening_hours": "Mo-Th 16:30-22:00; Fr 16:30-22:30; Sa 16:00-22:30; Su16:00-21:00", "phone": "+1 510 848 8515", "website": "https://www.hanajapan.com/"}}]}